CompanyLocationID,CompanyID,CompanyName,CompanyDescription,CompanyLocationDescription,secuirtycheckpoint,Hours,CompanyURL,AirlineCode,Terminal,Location,Categories,urlLogoImage,urlFrontImage,urlMenuDoc,AirportName,LocationPhone,CompanyLocationLastUpdated,CompanyLastUpdated,AddressLastUpdated,Lat,Long,Address,City,Zip,ProcessDate
1637,1073,The Coffee Bean & Tea Leaf,,"The Coffee Bean & Tea Leaf has an assortment of specialty coffee and blended coffee drinks, as well as tea and baked goods.",1,,,,Terminal 8,Departure Level,FOOD AND BEVERAGE FACILITIES,,,,LAX,310-462-1537,2018-02-05 06:44:43.680000000,2017-08-09 13:47:59.113000000,,33.942725,-118.397345,800 World Way,Los Angeles,90045,2019-04-11T00:00:02.000
50,32,Air New Zealand,, ,0,,www.airnz.com,NZ,TBIT,,AIR CARRIER,,,,LAX,(310) 646-3069,,,,,,380 World Way,Los Angeles,90045,2019-04-11T00:00:02.000
1734,1170,Engine Co. No. 28,,"Located in T8, Engine Co. No. 28 is a restaurant serving Classic American dishes with a Southern touch with a full bar.",1,,,,Terminal 8,Departure Level,FOOD AND BEVERAGE FACILITIES,,,,LAX,866-820-1178,2018-02-02 05:48:22.297000000,,,33.942075,-118.397222,800 World Way,Los Angeles,90045,2019-04-11T00:00:02.000
1961,1395,Jersey Mike's,,,1,,,,Terminal 2,,FOOD AND BEVERAGE FACILITIES,,,,LAX,310-301-9008,2018-11-19 07:05:07.067000000,2018-11-14 11:28:05.540000000,,,,,,,2019-04-11T00:00:02.000
1917,1353,Book Soup,,Search for a book or magazine at the Book Soup Bookstore.,1,,,,TBIT,,GIFT SHOPS AND NEWS STANDS,,,,LAX,424-800-2262,2018-11-28 14:01:30.777000000,2017-06-20 14:05:22.680000000,,,,,,,2019-04-11T00:00:02.000
1856,1292,Dunkin Donuts,,Enjoy a bit of the East Coast at Dunkin' Donuts.,1,,,,Terminal 4,Departure Level,FOOD AND BEVERAGE FACILITIES,,,,LAX,866-820-1178,2018-02-05 09:30:19.420000000,,,33.941007,-118.406911,400 World Way,Los Angeles,90045,2019-04-11T00:00:02.000
40,27,Air China,, ,0,,www.airchina.com.cn,AC,TBIT,,AIR CARRIER,,,,LAX,(310) 215-1188,,,,,,380 World Way,Los Angeles,90045,2019-04-11T00:00:02.000
1634,1070,B Grill By BOA Steakhouse,,"B Grill serves up classic sandwiches and burgers as well as an assortment of fish and steak entrees.
",1,,,,Terminal 7,Departure Level,FOOD AND BEVERAGE FACILITIES,,,,LAX,866-820-1178,2018-02-05 13:52:38.650000000,,,33.94187381840336,-118.39978509650825,700 World Way,Los Angeles,90045,2019-04-11T00:00:02.000
418,274,Hawaiian Airlines,, ,0,,www.hawaiianair.com,HA,Terminal 5,,AIR CARRIER,,,,LAX,(310) 417-1675,2017-05-17 04:24:52.720000000,2017-05-17 04:25:01.197000000,,,,500 World Way,Los Angeles,90045,2019-04-11T00:00:02.000
1950,648,Horizon Air,,,,,www.alaskaair.com/Destinations/CityGuides.aspx?city=lax&CID=QX_OLA_BT_LAX_APT,,Terminal 6,Departure Level,AIR CARRIER,,,,LAX,(800) 426-0333,2018-08-22 14:18:10.993000000,,,,,600 World Way,Los Angeles,90045,2019-04-11T00:00:02.000
376,240,First Aid Station,Located in Tom Bradley International Terminal., ,,,,,TBIT,Departure Level,MEDICAL FACILITIES/MUNICIPAL AGENCIES,,,,LAX,(310) 215-6000,,,,,,,,,2019-04-11T00:00:02.000
1864,1300,Qatar Airways,,,0,,,,TBIT,Departure Level,AIR CARRIER,,,,LAX,(877) 777-2827,2017-05-08 14:27:48.673000000,2017-05-08 14:27:58.543000000,,,,380 World Way,Los Angeles,90045,2019-04-11T00:00:02.000
1745,1181,Etihad Airways,,,0,,www.etihad.com,,TBIT,Departure Level,AIR CARRIER,,,,LAX,(877) 690-0767,,,,,,380 World Way,Los Angeles,90045,2019-04-11T00:00:02.000
1802,1238,Hudson News,,"Hudson News features a wide array of last minute items for travelers.
",1,,,,Terminal 7,Departure Level,GIFT SHOPS AND NEWS STANDS,,,,LAX,310-216-5832,2018-08-17 09:19:38.763000000,,,33.941478,-118.399806,700 World Way,Los Angeles,90045,2019-04-11T00:00:02.000
1701,1137,Fred Segal,,"The ivy-covered façade alerts you that you are about to enter the airport outpost of Fred Segal’s high end department store, one of the top LA haunts of A-list celebrities shopping for anything from high fashion to funky retro duds, kids wear to home good",1,,,,TBIT,Great Hall,GIFT SHOPS AND NEWS STANDS,,,,LAX,424-750-9271,2018-02-02 07:22:03.317000000,,,33.94331523,-118.41036513,380 World Way,Los Angeles,90045,2019-04-11T00:00:02.000
1612,1052,Hudson News ,,Hudson News features a wide array of last minute items for travelers.,1,,,,Terminal 4,Departure Level,GIFT SHOPS AND NEWS STANDS,,,,LAX,310-670-0474,2018-02-05 08:56:34.993000000,,,33.940558,-118.406908,400 World Way,Los Angeles,90045,2019-04-11T00:00:02.000
1854,1290,Brookstone,,"Featuring electronics, toys, travel accessories and more, there's something for everyone in Brookstone's eclectic shop.",1,,,,Terminal 1,Departure Level,GIFT SHOPS AND NEWS STANDS,,,,LAX,310-641-1033,2018-02-05 06:42:24.343000000,,,33.946843038080694,-118.4011666760922,100 World Way,Los Angeles,90045,2019-04-11T00:00:02.000
1049,79,Argenbright ,Security Screening Services provided at LAX., ,,,,,Terminal 6/7 ,Ticketing Level,CONTRACT SECURITY SERVICES,,,,LAX,(310) 342-9573,,,,,,Between Terminals 6 & 7,Los Angeles,90045,2019-04-11T00:00:02.000
1728,1164,Hermes Boutique - Duty Free,,"Hermes is a designer brand of distinction; you can shop for a purse, jewelry, women's apparel, or fragrances.",1,,,,TBIT,Great Hall,DUTY FREE SHOPS,,,,LAX,310-348-3773,2018-02-02 11:39:33.457000000,,,33.943349,-118.410232,380 World Way,Los Angeles,90045,2019-04-11T00:00:02.000
1960,1394,MAC Cosmetics,,,1,,,,Terminal 1,,GIFT SHOPS AND NEWS STANDS,,,,LAX,650-457-1015,2018-10-17 13:50:01.340000000,2018-10-17 11:48:49.967000000,,,,,,,2019-04-11T00:00:02.000
1909,1345,Reilly's Irish Pub,,"Based on the West Hollywood original, this cozy pub serves up comfort food like grilled cheese, corned beef sliders, and nachos, as well as a wide selection of sandwiches, burgers, and street tacos in fun flavors. Beer lovers can try a flight to sample se",1,,,,Terminal 1,Departure Level,FOOD AND BEVERAGE FACILITIES,,,,LAX,866-820-1178,2018-02-08 15:31:56.623000000,2017-04-17 15:03:22.040000000,,33.947337509405685,-118.40123594810654,,,,2019-04-11T00:00:02.000
1857,1293,Osteria by Fabio Viviani,,"Osteria by Fabio Viviani, serves up Italian appetizers, paninis, and pasta dishes.
",1,,,,Terminal 6,Departure Level,FOOD AND BEVERAGE FACILITIES,,,,LAX,424-227-9897,2018-02-05 13:37:22.730000000,,,33.94119456,-118.40180612,600 World Way,Los Angeles,90045,2019-04-11T00:00:02.000
1890,1326,Earthbar,,"Earthbar offers healthy snacks, smoothies, and grab & go food options.
",1,,,,Terminal 6,Departure Level,FOOD AND BEVERAGE FACILITIES,,,,LAX,310-433-6459,2018-02-05 13:39:14.727000000,,,33.941261501252896,-118.40208277045076,,,,2019-04-11T00:00:02.000
1828,1264,Pick Up Stix,,Pick Up Stix features a range of Asian comfort food.,1,,,,Terminal 2,Departure Level,FOOD AND BEVERAGE FACILITIES,,,,LAX,310-301-9008,2018-02-05 06:53:42,,,33.94617994,-118.40416421,200 World Way,Los Angeles,90045,2019-04-11T00:00:02.000
1680,1116,Panda Express,,"Since 1983, Panda Express has pioneered the quick-service Chinese food market and quickly became the quick serve Asian cuisine of choice for consumers and developers. Nearly 30 years and 1,500 stores later, Panda Express continues to provide quality Chine",1,,,,TBIT,Great Hall - Food Court,FOOD AND BEVERAGE FACILITIES,,,,LAX,310-307-7534,2018-02-02 06:14:03.327000000,,,33.94380474,-118.41034168,380 World Way,Los Angeles,90047,2019-04-11T00:00:02.000
1963,1397,L.A. Original,,,1,,,,TBIT,,GIFT SHOPS AND NEWS STANDS,,,,LAX,424-200-0009,2019-01-29 12:33:39.513000000,2019-01-30 14:10:30.070000000,,,,,,,2019-04-11T00:00:02.000
1911,1347,Austrian Airlines,,passengers will check in at Terminal B where flights depart; arrivals at Terminal 6,0,,www.austrian.com,,TBIT,Departure Level,AIR CARRIER,,,,LAX,(800) 843-0002,2017-07-10 14:16:43.350000000,2017-07-10 14:16:36.240000000,,,,380 World Way,Los Angeles,90045,2019-04-11T00:00:02.000
1844,1280,Los Angeles Magazine News,,Shop for last minute snacks and souvenirs at Los Angeles Magazine News.,1,,,,Terminal 6,Departure Level,GIFT SHOPS AND NEWS STANDS,,,,LAX,310-321-8834,2018-02-05 13:33:28.927000000,,,33.94070403,-118.40198959,600 World Way,Los Angeles,90045,2019-04-11T00:00:02.000
1633,1069,Skewers by Morimoto,,"Chef Morimoto's airport restaurant dishes out various deep fried, Japanese kebabs and other menu items.",1,,,,Terminal 5,Departure Level,FOOD AND BEVERAGE FACILITIES,,,,LAX,716-515-0813,2018-02-05 09:57:25.390000000,,,33.940528,-118.404224,,,,2019-04-11T00:00:02.000
1820,1256,7-Eleven,,"Shop for snacks, essentials, and more at 7 Eleven.",0,,,,TBIT,Arrival Level,FOOD AND BEVERAGE FACILITIES,,,,LAX,(310) 642-0751,2019-03-13 10:33:12.543000000,,,33.94367590849924,-118.40845377256562,380 World Way,Los Angeles,90045,2019-04-11T00:00:02.000
1880,1316,Wpizza by Wolfgang Puck,,"WPizza by Wolfgang Puck, features neapolitan pizza.
",1,,,,Terminal 6,Departure Level,FOOD AND BEVERAGE FACILITIES,,,,LAX,310-307-7526,2018-02-05 13:46:45.450000000,,,33.94162784,-118.40216843,600 World Way,Los Angeles,90045,2019-04-11T00:00:02.000
1815,1251,LA Times Newsstand,,"For travelers in a hurry, LA Times Newsstand offers salads, sandwiches, parfaits and more, plus a variety of beverages.",1,,,,Terminal 5,Departure Level,GIFT SHOPS AND NEWS STANDS,,,,LAX,866-820-1178,2018-02-05 09:55:52.710000000,,,33.940444,-118.404364,500 World Way,Los Angeles,90045,2019-04-11T00:00:02.000
1755,1191,The Counter Custom Built Burgers,,"The Counter is a burger joint for the 21st century, also serving additional menu items including sweet potato fries, parfaits and beverages.
",1,,,,Terminal 7,Departure Level - Food Court,FOOD AND BEVERAGE FACILITIES,,,,LAX,(310) 227-4423,2018-02-05 14:07:08.460000000,,,33.941398,-118.399436,700 World Way,Los Angeles,90045,2019-04-11T00:00:02.000
1869,1305,Southwest Int'l,,International passengers check in at Terminal 1; will be bused to Terminal B where international flights depart/arrive,0,,www.southwest.com,,TBIT,Departure Level,AIR CARRIER,,,,LAX,(800) 435-9792,2017-07-10 14:18:12.883000000,2017-07-10 14:18:01.140000000,,,,380 World Way,Los Angeles,90045,2019-04-11T00:00:02.000
808,541,Travelers Info-VIP,, ,,,www.lawa.org/vip,,Terminal 5,Arrival Level,TRAVELERS ASSISTANCE,,,,LAX,(310) 646-2275,,,,,,500 World Way,Los Angeles,90045,2019-04-11T00:00:02.000
1060,559,United Express,"All United Express Passengers with E-Tickets, check-in at Terminal 7.", ,0,,www.united.com,,Terminal 7,,AIR CARRIER,,,,LAX,,2017-08-29 08:12:51.040000000,2017-08-29 08:12:43.983000000,,,,700 World Way,Los Angeles,90045,2019-04-11T00:00:02.000
1812,1248,In Motion,,InMotion Entertainment offers the latest electronics and mobile accessories.,1,,,,Terminal 2,Departure Level,GIFT SHOPS AND NEWS STANDS,,,,LAX,213-703-7180,2018-02-05 06:57:04.633000000,,,33.946153058679584,-118.40388163722139,200 World Way,Los Angeles,90045,2019-04-11T00:00:02.000
1716,1152,8 oz. Burger Bar,,"The 8 oz. Burger Bar offers grass fed burgers, sandwiches, and breakfast.",1,,,,Terminal 4,Departure Level - Food Court,FOOD AND BEVERAGE FACILITIES,,,,LAX,310-646-3472,2019-03-13 16:16:31.583000000,,,33.940516487812054,-118.40657834435853,400 World Way,Los Angeles,90045,2019-04-11T00:00:02.000
1608,1050,DFS Duty Free,,DFS Duty Free offers a variety of products for travelers. Domestic passengers are invited to purchase everything but liquor and tobacco.,1,,,,Terminal 4,Departure Level,DUTY FREE SHOPS,,,,LAX,(310) 216-7134,2018-02-05 09:33:44.940000000,,,33.941943,-118.406866,400 World Way,Los Angeles,90045,2019-04-11T00:00:02.000
1548,1007,Allegiant Air,,,0,,www.allegiantair.com,,Terminal 5,T-5,AIR CARRIER,,,,LAX,(702) 505-8888,2017-05-13 01:36:04.830000000,2017-05-13 01:36:13.863000000,,,,500 World Way,Los Angeles,90045,2019-04-11T00:00:02.000
1041,548,"U.S. Dept. of Agriculture, Dept. of Plant Protection",, ,,,,,Terminal 5,Arrival Level,"GOVERNMENT AGENCIES, AGRICULTURE",,,,LAX,(310) 646-4397,,,,,,500 World Way,Los Angeles,90045,2019-04-11T00:00:02.000
804,541,Travelers Info-VIP,, ,0,,www.lawa.org/vip,,Terminal 1,Arrival Level,TRAVELERS ASSISTANCE,,,,LAX,(310) 646-2271,,,,,,100 World Way,Los Angeles,90045,2019-04-11T00:00:02.000
1819,1255,Hudson,,"The next generation travel essentials store. We are The Traveler’s Best Friend. Hudson’s brightly lit sections – Media, Marketplace, Essentials and Destination – meet customer demand for all the traveler’s essentials: reading materials, snacks, beverages,",0,,,,TBIT,Ticketing Level,GIFT SHOPS AND NEWS STANDS,,,,LAX,310-645-0289,2018-02-02 08:06:18.337000000,,,33.94296945,-118.40928878,380 World Way,Los Angeles,90045,2019-04-11T00:00:02.000
1579,1036,Iberia Airlines,,,0,,www.iberia.com,,TBIT,,AIR CARRIER,,,,LAX,(800) 772-4642,,,,,,380 World Way,Los Angeles,90045,2019-04-11T00:00:02.000
1729,1165,Gucci Boutique - Duty Free,,"Gucci is an Italian brand famous for high fashion women's apparel and accessories, such handbags, jewelry and more.",1,,,,TBIT,Great Hall,DUTY FREE SHOPS,,,,LAX,(310) 348-2691,2018-02-02 11:42:50.157000000,,,33.943468,-118.410291,380 World Way,Los Angeles,90045,2019-04-11T00:00:02.000
1621,1058,I Love LA,,"I Love LA offers airport shoppers a wide variety of items such as souvenirs, beverages, magazines, and more at reasonable prices.",1,,,,Terminal 5,Departure Level,GIFT SHOPS AND NEWS STANDS,,,,LAX,(310) 645-3753,2018-02-05 06:41:17.707000000,,,33.941476,-118.404588,500 World Way,Los Angeles,90045,2019-04-11T00:00:02.000
1959,1393,beaming,,,1,,,,Terminal 1,,FOOD AND BEVERAGE FACILITIES,,,,LAX,310-310-5602,2018-10-17 13:50:30.157000000,2018-10-17 07:20:52.580000000,,,,,,,2019-04-11T00:00:02.000
1866,1302,Deli & Co.,Grab and go unit at Gate 9.,Grab a sandwich togo from Deli & Co.,1,,,,Terminal 1,Departure Level,FOOD AND BEVERAGE FACILITIES,,,,LAX,866-820-1178,2018-02-05 06:35:33.987000000,,,33.94601471897333,-118.40067938973595,100 World Way,Los Angeles,90045,2019-04-11T00:00:02.000
1906,1342,The Coffee Bean and Tea Leaf,,"The Coffee Bean & Tea Leaf has an assortment of specialty coffee and blended coffee drinks, as well as tea and baked goods.",1,,,,Terminal 1,,FOOD AND BEVERAGE FACILITIES,,,,LAX,866-820-1178,2018-02-05 06:44:21.240000000,2016-12-07 14:36:48.573000000,,33.946943678238576,-118.40116084625413,100 World Way,Los Angeles,90045,2019-04-11T00:00:02.000
1522,993,Emirates,,,0,,www.emirates.com,,TBIT,Departure Level-  TBIT,AIR CARRIER,,,,LAX,(800) 777-3999,,,,,,,,,2019-04-11T00:00:02.000
1941,1377,CNBC,,,1,,,,TBIT,,GIFT SHOPS AND NEWS STANDS,,,,LAX,714-328-0456,2018-04-11 08:08:45.720000000,2018-04-11 07:57:18.053000000,,,,,,,2019-04-11T00:00:02.000
1832,1268,Hollywood Reporter,,"The Hollywood Reporter is a widely trusted resource for breaking entertainment news, movie and TV reviews, movie trailers, TV clips and analysis.  As the entertainment industry's flagship media brand, the Hollywood Reporter brings in-depth reporting, anal",0,,,,Terminal 5,Arrival Level,GIFT SHOPS AND NEWS STANDS,,,,LAX,310-417-2844,2018-02-02 07:28:44.400000000,,,33.94257358751758,-118.40474159528901,500 World Way,Los Angeles,90045,2019-04-11T00:00:02.000
1631,1067,Sammy's Woodfired Pizza,,Sammy's Woodfired Pizza features a restaurant/bar offering east coast style pizza.,1,,,,Terminal 4,Departure Level,FOOD AND BEVERAGE FACILITIES,,,,LAX,866-820-1178,2018-02-05 09:31:46.660000000,,,33.941312,-118.406737,400 World Way,Los Angeles,90045,2019-04-11T00:00:02.000
1859,1295,M.Fredric,,"Shop for a selection of women's apparel and more at M. Frederic.
",1,,,,Terminal 6,Departure Level,GIFT SHOPS AND NEWS STANDS,,,,LAX,310-646-1770,2018-02-05 13:36:15.330000000,2017-03-23 12:47:10.470000000,,33.94106053,-118.40193279,600 World Way,Los Angeles,90045,2019-04-11T00:00:02.000
840,556,U.S. Public Health Service,"For public inquiries, call the Centers for Disease Control and Prevention (CDC) Hotline:
(888) 246-2675", ,,,www.cdc.gov/,,TBIT,Division of Quarantine,GOVERNMENT AGENCIES,,,,LAX,(310) 215-2427,,,,,,380 World Way,Los Angeles,90045,2019-04-11T00:00:02.000
1686,1122,Starbucks Evenings,,"Starbucks Evenings has all of the wonderful coffee drinks they're known for plus appetizers, beer and wine.",1,,,,TBIT,South Concourse,FOOD AND BEVERAGE FACILITIES,,,,LAX,310-307-7535,2018-02-02 10:43:46.933000000,,,33.940304,-118.409946,380 World Way,Los Angeles,90045,2019-04-11T00:00:02.000
1521,992,Qantas,,,0,,www.qantas.com,,TBIT,,AIR CARRIER,,,,LAX,(800) 227-4500,,,,,,380 World Way,Los Angeles,90045,2019-04-11T00:00:02.000
1839,1275,The Habit Burger Grill,,"The Habit serves up a variety of charbroiled burgers, fresh salads, and tasty sides.",1,,,,Terminal 6,Departure Level,FOOD AND BEVERAGE FACILITIES,,,,LAX,310-433-6459,2018-02-05 13:34:37.923000000,,,33.940912,-118.401894,600 World Way,Los Angeles,90045,2019-04-11T00:00:02.000
1641,1077,Entertainment Weekly Newsstand,,Entertainment Weekly Newsstand offers reading material along with snacks and beverages.,1,,,,Terminal 4,Departure Level,GIFT SHOPS AND NEWS STANDS,,,,LAX,(310) 568-8286,2018-02-05 09:32:27.740000000,,,33.941777,-118.407066,400 World Way,Los Angeles,90045,2019-04-11T00:00:02.000
823,548,"U.S. Dept. of Agriculture, Dept. of Plant Protection",, ,,,,,Terminal 6,Arrival Level,"GOVERNMENT AGENCIES, AGRICULTURE",,,,LAX,(310) 348-7512,,,,,,600 World Way,Los Angeles,90045,2019-04-11T00:00:02.000
1932,1368,The Parlor,,"An iconic LA gastro-pub, The Parlor is a classic ode to the “good ole days” with well-crafted cocktails and a warm, nostalgic dining experience.",1,,,,Terminal 3,Departure Level,FOOD AND BEVERAGE FACILITIES,,,,LAX,866-820-1178,2018-02-08 15:39:40.117000000,2017-11-27 10:49:25.797000000,,,,,,,2019-04-11T00:00:02.000
1888,1324,Los Angeles America!,," This regional specialty store houses a curated array of charming souvenirs, gifts, apparel and accessories associated with local pride, pop culture, and current events.",1,,,,TBIT,Departure Level,GIFT SHOPS AND NEWS STANDS,,,,LAX,424-750-9595,2018-02-08 12:33:18.793000000,,,,,380 World Way,Los Angeles,90045,2019-04-11T00:00:02.000
1638,1074,Corona Bar,,American comfort food with a Mexican touch and a great bar and lounge area to relax.,1,,,,Terminal 8,Departure Level,FOOD AND BEVERAGE FACILITIES,,,,LAX,866-820-1178,2018-02-02 05:50:54.813000000,,,33.941301,-118.397109,800 World Way,Los Angeles,90045,2019-04-11T00:00:02.000
1089,660,Bravo Aviation,Heliport facilities, ,,,www.bravoair.com,,Terminal 4,,AIRCRAFT CHARTERS,,,,LAX,(310) 337-6701,,,,,,,,,2019-04-11T00:00:02.000
1816,1252,ICE Currency Exchange Kiosk,,,0,,,,TBIT,Ticketing Level,"BUSINESS SERVICES, CURRENCY EXCHANGE",,,,LAX,(310) 646-1950,2017-08-01 08:59:43.843000000,,,33.94374858,-118.40854606,380 World Way,Los Angeles,90045,2019-04-11T00:00:02.000
1691,1127,Rock & Brews Concert Bar & Grill,,Rock & Brews serves up a variety of bar bites.,1,,,,Terminal 5,Departure Level,FOOD AND BEVERAGE FACILITIES,,,,LAX,866-820-1178,2018-02-05 06:38:42.210000000,,,33.94106829768135,-118.4045224576721,500 World Way,Los Angeles,90045,2019-04-11T00:00:02.000
1943,1379,Dunkin' Donuts,,,0,,,,Terminal 7,Arrival Level,FOOD AND BEVERAGE FACILITIES,,,,LAX,866-820-1178,2018-05-29 15:18:35.567000000,2018-05-29 15:17:34.907000000,,,,,,,2019-04-11T00:00:02.000
1654,1090,E! News,,"Faithful fans of the E! network know that this is the place for the latest breaking updates on their favorite Hollywood stars and the day’s hottest stories. Welcome to E! News – a fashionable, fun walk down the famous ‘red carpet.”

",1,,,,Terminal 8,Departure Level,GIFT SHOPS AND NEWS STANDS,,,,LAX,(310) 338-2114,2018-02-02 07:15:12.703000000,,,33.942422,-118.397324,800 World Way,Los Angeles,90045,2019-04-11T00:00:02.000
1949,17,Aeroflot,Located in Tom Bradley International Terminal (TBIT).,,,,www.aeroflot.ru,SU,TBIT,Departure Level,AIR CARRIER,,,,LAX,(310) 417-1190,2018-08-16 07:08:34.013000000,,,,,380 World Way,Los Angeles,90045,2019-04-11T00:00:02.000
1849,1285,MARKET 8600,,"Shop for a range of snacks, Los Angeles souvenirs, and more at Market 8600.
",1,,,,Terminal 6,Departure Level,GIFT SHOPS AND NEWS STANDS,,,,LAX,424-227-7941,2018-02-05 13:41:10.370000000,,,33.94139594,-118.40194406,600 World Way,Los Angeles,90045,2019-04-11T00:00:02.000
499,329,Korean Airlines,Located in Tom Bradley International Terminal (TBIT)., ,,,www.koreanair.com,KE,TBIT,,AIR CARRIER,,,,LAX,(800) 438-5000,,,,,,380 World Way,Los Angeles,90045,2019-04-11T00:00:02.000
1851,1287,Be Relax,,Unwind with several relaxation and beauty services at Be Relax.,1,,,,Terminal 1,Departure Level,GIFT SHOPS AND NEWS STANDS,,,,LAX,310-342-0100,2018-02-05 06:39:28.610000000,,,33.94664487874867,-118.40128331779101,100 World Way,Los Angeles,90045,2019-04-11T00:00:02.000
1646,1082,Magic Johnson Sports,,"There’s retail magic inside this exciting sports store in Terminal 5, the first ever dedicated to LA hero Earvin “Magic” Johnson. The Lakers purple-and-yellow décor sends the message: you’re in LA!",1,,,,Terminal 5,Departure Level,GIFT SHOPS AND NEWS STANDS,,,,LAX,310-981-8322,2018-02-02 07:06:50.997000000,,,33.941559,-118.404605,500 World Way,Los Angeles,90045,2019-04-11T00:00:02.000
1697,1133,Relay ,,Relay is a one-stop shop for items in demand by busy travelers.,1,,,,TBIT,Great Hall,GIFT SHOPS AND NEWS STANDS,,,,LAX,(310) 665-9839,2018-02-02 11:37:17.467000000,,,,,380 World Way,Los Angeles,90045,2019-04-11T00:00:02.000
1831,1267,Starbucks Evenings,,"Starbucks is an internationally known coffee shop offering drinks, snacks, and to-go items.",1,,,,Terminal 6,Departure Level,FOOD AND BEVERAGE FACILITIES,,,,LAX,310-307-7525,2018-02-05 08:18:07.700000000,,,33.94214715,-118.40208905,600 World Way,Los Angeles,90045,2019-04-11T00:00:02.000
1711,1147,Chaya Sushi,,"Chaya is a favorite with travelers who want to enjoy fresh sushi, rice balls and other Asian dishes.",1,,,,TBIT,Great Hall,FOOD AND BEVERAGE FACILITIES,,,,LAX,310-307-7530,2018-02-02 10:56:55.923000000,,,33.94364673,-118.41058724,380 World Way,Los Angeles,90045,2019-04-11T00:00:02.000
1826,1262,See's Candies,,"See's Candies offers chocolate, peanut brittle, truffles, nuts and so much more to tempt a sweet tooth.",1,,,,Terminal 6,Departure Level,GIFT SHOPS AND NEWS STANDS,,,,LAX,714-926-3416,2018-02-05 09:06:09.110000000,,,33.94214976,-118.40217537,600 World Way,Los Angeles,90045,2019-04-11T00:00:02.000
1642,1078,Sunglass Hut,,Sunglass Hut is the go-to place to shop for sunglasses.,1,,,,Terminal 4,Departure Level,GIFT SHOPS AND NEWS STANDS,,,,LAX,310-649-5579,2018-02-05 09:09:25.027000000,,,33.940711,-118.406857,400 World Way,Los Angeles,90045,2019-04-11T00:00:02.000
1962,1396,L.A. Original,,"Support local creativity
Reflecting the creative culture and collaborative spirit of Los Angeles.
Our LA original collection is born of diverse artist and makers from across our city.
Proceeds support the Downtown Women's Center's MADE by DWC program.",1,,,,Terminal 1,,GIFT SHOPS AND NEWS STANDS,,,,LAX,424-200-0148,2019-01-03 12:24:13.670000000,2019-01-30 14:10:01.380000000,,,,,,,2019-04-11T00:00:02.000
1627,1063,ICE Currency Exchange Kiosk,,,0,,,,Terminal 6,Departure Level,"BUSINESS SERVICES, CURRENCY EXCHANGE",,,,LAX,(310) 642-1899,2017-08-09 15:30:11.330000000,,,33.94116996,-118.40204648,600 World Way,Los Angeles,90045,2019-04-11T00:00:02.000
1719,1155,Border Grill,,"Border Grill is known as a great place to eat, have a beer, margarita or cocktails at the bar while watching TV.",1,,,,TBIT,Great Hall - Food Court,FOOD AND BEVERAGE FACILITIES,,,,LAX,310-307-7529,2018-02-02 10:56:06.260000000,,,33.94359989,-118.41042488,380 World Way,Los Angeles,90045,2019-04-11T00:00:02.000
739,499,Southwest Airlines,"Located at LAX and Ontario airports.

LAX - Terminal 1 (T-1)
Ontario - Terminal 4 (T-4)", International passengers check in at Terminal 1; will be bused to Terminal B where international flights depart/arrive.,0,,www.southwest.com,WN,Terminal 1,,AIR CARRIER,,,,LAX,(310) 665-5680,2017-07-03 08:19:05.150000000,,,,,100 World Way,Los Angeles,90045,2019-04-11T00:00:02.000
829,550,U. S. Customs Service,, ,,,,,TBIT,Arrival Level - Tom Bradley International Terminal,GOVERNMENT AGENCIES,,,,LAX,(310) 568-7545,,,,,,380 World Way,Los Angeles,90045,2019-04-11T00:00:02.000
1810,1246,The Coffee Bean & Tea Leaf,,"The Coffee Bean & Tea Leaf has an assortment of specialty coffee and blended coffee drinks, as well as tea and baked goods.",0,,,,Terminal 5,Arrival Level,FOOD AND BEVERAGE FACILITIES,,,,LAX,310-321-8950,2018-02-05 06:45:46.080000000,2017-08-09 13:47:18.377000000,,33.942569137209006,-118.40457529833009,500 World Way,Los Angeles,90045,2019-04-11T00:00:02.000
1797,1233,The Coffee Bean & Tea Leaf,,"The Coffee Bean & Tea Leaf has an assortment of specialty coffee and blended coffee drinks, as well as tea and baked goods.",0,,,,TBIT,Arrival Level,FOOD AND BEVERAGE FACILITIES,,,,LAX,786-810-9354,2018-02-05 06:46:11.627000000,2017-08-09 13:48:44.227000000,,33.94373286,-118.40862114,380 World Way,Los Angeles,90045,2019-04-11T00:00:02.000
1318,830,United Express Airlines,All United Express passengers with Paper Tickets and Non Ticketed passengers check in at Terminal 8.,,0,,www.united.com,,Terminal 8,,AIR CARRIER,,,,LAX,(800) 241-6522,2017-08-29 08:13:19.310000000,2017-08-29 08:13:10.273000000,,,,800 World Way,Los Angeles,90045,2019-04-11T00:00:02.000
1855,1291,Rock & Brews Concert Bar and Grill,,Rock & Brews serves up a variety of bar bites.,1,,,,Terminal 1,Departure Level,FOOD AND BEVERAGE FACILITIES,,,,LAX,424-702-4596,2018-02-05 06:38:01.303000000,,,33.94667222292691,-118.40128691007783,100 World Way,Los Angeles,90045,2019-04-11T00:00:02.000
1948,1384,Urth Caffe & Bar,,,1,,,,Terminal 1,,FOOD AND BEVERAGE FACILITIES,,,,LAX,866-820-1178,2018-08-13 10:54:07.870000000,2018-08-13 10:06:40.100000000,,,,,,,2019-04-11T00:00:02.000
1873,1309,WPizza by Wolfgang Puck,,Grab some quick Italian and a cocktail at Wpizza by Wolfgang Puck.,0,,,,TBIT,Ticketing Level,FOOD AND BEVERAGE FACILITIES,,,,LAX,310-863-6119,2018-02-02 12:11:46.470000000,,,,,380 World Way,Los Angeles,90045,2019-04-11T00:00:02.000
1842,1278,Pinkberry,,"An airport favorite, Pinkberry is a go-to place for frozen yogurt with all the toppings.",0,,,,TBIT,Arrival Level,FOOD AND BEVERAGE FACILITIES,,,,LAX,310-259-3368,2018-02-02 10:48:43.520000000,,,33.94339875,-118.40869147,380 World Way,Los Angeles,90045,2019-04-11T00:00:02.000
1903,1339,Sichuan Airlines,,,0,,,,TBIT,Departure Level,AIR CARRIER,,,,LAX,,2016-10-13 10:59:27.023000000,2016-10-13 10:59:27.013000000,,,,,,,2019-04-11T00:00:02.000
1739,1175,DFS Duty Free,,"Shop for Duty Free favorites at DFS.
",1,,,,Terminal 6,Departure Level,DUTY FREE SHOPS,,,,LAX,(310) 338-0027,2018-02-05 13:42:57.703000000,,,33.94145291,-118.40191488,600 World Way,Los Angeles,90045,2019-04-11T00:00:02.000
447,292,ICE Currency Exchange Kiosk,Located in LAX  airport., ,0,,,,Terminal 3,Departure Level,"BUSINESS SERVICES, INSURANCE, CURRENCY EXCHANGE",,,,LAX,(310) 646-0553,2017-08-09 15:57:11.170000000,,,33.94578042,-118.4072246,300 World Way,Los Angeles,90045,2019-04-11T00:00:02.000
1902,1338,Treat Me Sweet,,Shop for a variety of candy at Treat Me Sweet.,1,,,,TBIT,Departure Level,FOOD AND BEVERAGE FACILITIES,,,,LAX,424-800-2037,2018-02-02 10:46:06.213000000,2016-09-26 14:20:53.820000000,,,,380 World Way,Los Angeles,90045,2019-04-11T00:00:02.000
1853,1289,XpresSpa,,"XpresSpa offers the ultimate relaxation experience such as a facial, massage, manicure, pedicure, waxing and much more.",1,,,,TBIT,Departure Level,"SPAS, GIFT SHOPS AND NEWS STANDS",,,,LAX,310-410-9263,2018-02-02 10:46:54.803000000,,,33.940403,-118.410234,380 World Way,Los Angeles,90045,2019-04-11T00:00:02.000
1630,1066,Homeboy Cafe,,Homeboy Cafe serves up Peet's Coffee & Tea accompanied by a wide assortment of sandwich and bakery items.,1,,,,Terminal 4,Departure Level,FOOD AND BEVERAGE FACILITIES,,,,LAX,866-820-1178,2018-02-05 09:33:09.200000000,,,33.94193090758138,-118.40687455092615,400 World Way,Los Angeles,90045,2019-04-11T00:00:02.000
1754,1190,Scoreboard LA,,Enjoy a pre-flight drink at Scoreboard LA and accompany it with a sandwich or hot dog.,1,,,,TBIT,South Concourse,FOOD AND BEVERAGE FACILITIES,,,,LAX,424-901-1288,2018-02-02 11:45:37.770000000,,,33.939675,-118.409822,380 World Way,Los Angeles,90045,2019-04-11T00:00:02.000
1752,1188,James' Beach,,James Beach Restaurant & Bar is a local favorite with a long list of cocktails and savory tacos.,1,,,,TBIT,North Concourse,FOOD AND BEVERAGE FACILITIES,,,,LAX,424-901-1041,2018-02-02 11:03:55.873000000,,,33.945079,-118.410617,380 World Way,Los Angeles,90045,2019-04-11T00:00:02.000
1713,1149,Campanile,,Campanile restaurant features upscale but reasonably priced food with a well stocked bar.,1,,,,Terminal 4,Departure Level - Food Court,FOOD AND BEVERAGE FACILITIES,,,,LAX,310-646-3472,2018-02-05 09:05:04.527000000,,,33.940695,-118.406552,400 World Way,Los Angeles,90045,2019-04-11T00:00:02.000
1457,21,Aeromexico ,,,0,,www.aeromexico.com,AM,Terminal 2,,AIR CARRIER,,,,LAX,(310) 646-0339,,,,,,200 World Way,Los Angeles,90045,2019-04-11T00:00:02.000
1786,1222,The Coffee Bean & Tea Leaf,,"Born and brewed in Southern California since 1963, The Coffee Bean & Tea Leaf delivers the taste and aroma of the
world’s best coffees and teas. In addition to coffee & tea, this location has an extensive line of bakery and food grab &
go items.",0,,,,TBIT,Ticketing Level,FOOD AND BEVERAGE FACILITIES,,,,LAX,310-307-7531,2018-02-02 05:58:46.480000000,2017-08-09 13:45:52.910000000,,33.94329985,-118.40858084,380 World Way,Los Angeles,90045,2019-04-11T00:00:02.000
1799,1235,Wolfgang Puck Express,,"Wolfgang Puck Express features Wolfgang's most popular dishes in a fast-casual setting with affordable prices. The menu features Wolfgang Puck's hand-crafted gourmet pizzas, sandwiches, soups, fresh salads and other Wolfgang Puck classics. ",1,,,,Terminal 7,Departure Level,FOOD AND BEVERAGE FACILITIES,,,,LAX,310-654-6951,2017-08-09 14:04:19.867000000,,,33.941327,-118.39979,700 World Way,Los Angeles,90045,2019-04-11T00:00:02.000
822,548,"U.S. Dept. of Agriculture, Dept. of Plant Protection",, ,,,,,Terminal 2,Arrival Level,"GOVERNMENT AGENCIES, AGRICULTURE",,,,LAX,(310) 646-2936,,,,,,200 World Way,Los Angeles,90045,2019-04-11T00:00:02.000
1910,1346,LOT Polish,,,0,,www.lot.com,,TBIT,Departure Level,AIR CARRIER,,,,LAX,(212) 789-0970,2017-04-03 07:51:35.270000000,2017-04-03 07:51:35.260000000,,,,380 World Way,Los Angeles,90045,2019-04-11T00:00:02.000
1715,1151,Real Food Daily,,"Real Food Daily is a lifesaver to travelers who want to avoid sugary, fatty food, offering tofu, veggies and organic menu items.",1,,,,Terminal 4,Departure Level - Food Court,FOOD AND BEVERAGE FACILITIES,,,,LAX,310-646-3472,2018-02-05 09:03:36.493000000,,,33.94060154140892,-118.40651981349185,400 World Way,Los Angeles,90045,2019-04-11T00:00:02.000
1072,654,Virgin Atlantic,, Virgin Atlantic passengers check-in at Terminal 2. Passengers will be bused from Terminal 2 to the Tom Bradley International Terminal (Terminal B) for departure. Arriving passengers may be met at Terminal B.,0,,www.virgin.com/atlantic,,Terminal 2,,AIR CARRIER,,,,LAX,(800) 880-6253,2018-11-01 09:06:58.987000000,2018-11-01 08:59:29.243000000,2018-11-01 08:59:50.400000000,,,200 World Way,Los Angeles,90045 ,2019-04-11T00:00:02.000
1904,1340,Earl of Sandwich,,Earl of Sandwich is well known for their toasted sandwiches.,0,,,,TBIT,Ticketing Level,FOOD AND BEVERAGE FACILITIES,,,,LAX,323-451-1004,2018-02-02 12:12:38.430000000,2016-11-01 15:09:10.020000000,,,,380 World Way,Los Angeles,90045,2019-04-11T00:00:02.000
1682,1118,800 Degrees Pizza,,"800 Degrees Pizza – a Los Angeles based concept – offers traditional Neapolitan pizza baked in an 800 degree real wood-burning oven. Passengers can order from a few favorite combinations, or can personalize their pizza and create their own masterpiece!",1,"M-F  8:00am - 7:00pm
S-Su 10:00am - 4:00pm",,,TBIT,Great Hall - Food Court,FOOD AND BEVERAGE FACILITIES,,,,LAX,(310) 307-7528,2019-03-13 15:07:37.037000000,,,33.94385039,-118.41019519,380 World Way,Los Angeles,90045,2019-04-11T00:00:02.000
1718,1154,Ford's Filling Station,,"Ford's Filling Station serves trendy, tasty dishes in their restaurant as well as a place to watch to watch the game.",1,,,,Terminal 5,Departure Level,FOOD AND BEVERAGE FACILITIES,,,,LAX,866-820-1178,2018-02-05 09:56:43.783000000,,,33.940515,-118.404401,500 World Way,Los Angeles,90045,2019-04-11T00:00:02.000
1749,1185,Coffee Corner,,,1,,,,Terminal 5,Departure Level - Food Court,FOOD AND BEVERAGE FACILITIES,,,,LAX,310-428-4987,2018-02-06 11:29:54.207000000,,,33.9409037023787,-118.40410080489346,500 World Way,Los Angeles,90045,2019-04-11T00:00:02.000
1823,1259,Fresh Brothers Pizza & Sandwiches,,"Fresh Brothers serves up pizzas, chicken wings, and salads.",1,,,,Terminal 2,Departure Level,FOOD AND BEVERAGE FACILITIES,,,,LAX,310-301-9008,2018-02-05 07:05:06.863000000,,,33.94621768,-118.40423871,200 World Way,Los Angeles,90045,2019-04-11T00:00:02.000
1723,1159,Vanilla Bake Shop,,"The Vanilla Bake Shop is the place to pick up macaroons, desserts, a healthy fruit cup or a sandwich.",1,,,,TBIT,South Concourse,FOOD AND BEVERAGE FACILITIES,,,,LAX,310-307-7539,2018-02-02 11:44:26.750000000,,,33.942439,-118.410344,380 World Way,Los Angeles,90045,2019-04-11T00:00:02.000
71,49,Airport Terminal Services,, ,,,,,Terminal 3,T-3,GROUND HANDLING SERVICES/AIRCRAFT SERVICES,,,,LAX,(310) 646-2297,,,,,,300 World Way,Los Angeles,90045,2019-04-11T00:00:02.000
1951,1385,Cassell's Hamburgers,,,1,,,,Terminal 1,Departure Level,FOOD AND BEVERAGE FACILITIES,,,,LAX,310-310-5602,2018-09-05 08:45:33.287000000,2018-08-27 11:19:55.137000000,,,,,,,2019-04-11T00:00:02.000
235,154,China Southern,, ,0,,www.cs-air.com/en/,CZ,TBIT,,AIR CARRIER,,,,LAX,(888) 338-8988,,,,,,380 World Way,Los Angeles,90045,2019-04-11T00:00:02.000
1756,1192,BLD,,"BLD restaurant features an American classic menu, offering breakfast, lunch and dinner, as well as lighter options for the more health-minded traveler.
",1,,,,Terminal 7,Departure Level - Food Court,FOOD AND BEVERAGE FACILITIES,,,,LAX,310-258-9775,2018-02-05 14:06:27.747000000,,,33.941398,-118.399436,700 World Way,Los Angeles,90045,2019-04-11T00:00:02.000
468,305,ITS (Int'l Total Services Security Screening),Services provided at LAX., ,,,,,Terminal 3,,CONTRACT SECURITY SERVICES,,,,LAX,(310) 410-5330,,,,,,,,,2019-04-11T00:00:02.000
1706,1142,CNN Los Angeles Newsstand,,"Since its inception in 1980, Cable News Network (CNN) has built a solid reputation for breaking and interpreting the news, with over 900 affiliated local stations and media stars like Anderson Cooper, Wolf Blitzer, Soledad O’Brien and Dr. Sanjay Gupta. In",1,,,,TBIT,South Concourse,GIFT SHOPS AND NEWS STANDS,,,,LAX,(424) 750-9102,2018-02-02 07:30:11.260000000,,,33.940985,-118.410322,380 World Way,Los Angeles,90045,2019-04-11T00:00:02.000
56,35,Air Tahiti Nui,Located in Tom Bradley International Terminal (TBIT)., ,,,www.airtahitinui-usa.com,,TBIT,,AIR CARRIER,,,,LAX,(310) 258-9913,,,,,,380 World Way,Los Angeles,90045,2019-04-11T00:00:02.000
87,56,All Nippon Airways (ANA),Located in Tom Bradley International Terminal (TBIT)., ,,,www.fly-ana.com,NH,TBIT,,AIR CARRIER,,,,LAX,(310) 646-1480,,,,,,380 World Way,Los Angeles,90045,2019-04-11T00:00:02.000
1918,1354,I Love LA ,,"I Love LA offers airport shoppers a wide variety of items such as souvenirs, beverages, magazines, and more at reasonable prices.",1,,,,TBIT,Departure Level,FOOD AND BEVERAGE FACILITIES,,,,LAX,323-994-0299,2018-02-05 06:41:44.110000000,2017-06-21 09:54:56.710000000,,,,,,,2019-04-11T00:00:02.000
1773,1209,Rolling Stone Bar & Grill,,"Rolling Stone Bar & Grill's menu includes American favorites, small plates, and flatbread pizzas.
",1,,,,Terminal 7,Departure Level,FOOD AND BEVERAGE FACILITIES,,,,LAX,310-258-9775,2018-02-05 14:05:51.577000000,,,33.941541,-118.399468,700 World Way,Los Angeles,90045,2019-04-11T00:00:02.000
1887,1323,Point the Way Cafe,,"Golden Road's Point the Way Cafe features flatbreads, sandwiches, and craft beers.
",1,,,,Terminal 6,Departure Level,FOOD AND BEVERAGE FACILITIES,,,,LAX,310-307-7524,2018-02-05 13:38:13.523000000,,,33.94105334,-118.40218998,600 World Way,Los Angeles,90045,2019-04-11T00:00:02.000
22,17,Aeroflot,Located in Tom Bradley International Terminal (TBIT)., ,,,www.aeroflot.ru,SU,TBIT,,AIR CARRIER,,,,LAX,(310) 417-1190,,,,,,380  World Way,Los Angeles,90045,2019-04-11T00:00:02.000
811,541,Travelers Info-VIP,, ,,,www.lawa.org/vip,,TBIT,Arrival Level,TRAVELERS ASSISTANCE,,,,LAX,(310) 646-7365,,,,,,380 World Way,Los Angeles,90045,2019-04-11T00:00:02.000
131,79,Argenbright ,Security Screening Services provided at LAX., Screening Station,,,,,Terminal 7,Departure Level,CONTRACT SECURITY SERVICES,,,,LAX,(310) 342-9321,,,,,,700 World Way,Los Angeles,90045,2019-04-11T00:00:02.000
807,541,Travelers Info-VIP,, ,,,www.lawa.org/vip,,Terminal 4,Arrival Level,TRAVELERS ASSISTANCE,,,,LAX,(310) 646-2274,,,,,,400 World Way,Los Angeles,90045,2019-04-11T00:00:02.000
1905,1341,Planet Hollywood,,"Planet Hollywood grills up appetizers, burgers, entrees, and more.",0,,,,TBIT,Ticketing Level,FOOD AND BEVERAGE FACILITIES,,,,LAX,323-451-1004,2018-03-16 07:13:12.930000000,2016-11-28 10:32:52.663000000,,,,,,,2019-04-11T00:00:02.000
454,292,ICE Currency Exchange Kiosk,Located in LAX  airport., ,,,,,Terminal 6,Arrival Level,"BUSINESS SERVICES, INSURANCE, CURRENCY EXCHANGE",,,,LAX,310-646-7761,2017-08-01 08:57:59.990000000,,,,,600 World Way,Los Angeles,90045,2019-04-11T00:00:02.000
472,309,Japan Airlines,Located in Tom Bradley International Terminal (TBIT)., ,,,www.jal.co.jp,JL,TBIT,,AIR CARRIER,,,,LAX,(310) 646-2640,,,,,,380 World Way,Los Angeles,90045,2019-04-11T00:00:02.000
1833,1269,MAC Cosmetics,,"M.A.C. is well known for their line of cosmetics.
",1,,,,Terminal 6,Departure Level,GIFT SHOPS AND NEWS STANDS,,,,LAX,310-321-8898,2018-02-05 13:41:38.347000000,,,33.94136058,-118.40207637,600 World Way,Los Angeles,90045,2019-04-11T00:00:02.000
1746,1182,Loteria! Grill,,¡Loteria! Grill provides regional Mexican dishes with fresh and homemade salsas.,1,,,,Terminal 5,Departure Level - Food Court,FOOD AND BEVERAGE FACILITIES,,,,LAX,562-381-3641,2018-02-05 09:59:16.727000000,,,33.940877,-118.404192,500 World Way,Los Angeles,90045,2019-04-11T00:00:02.000
1953,1387,Trejo's Tacos,"Colorful, art-filled taqueria for meat, vegan and vegetarian specialties, aguas frescas and kombucha.","Colorful, art-filled taqueria for meat, vegan and vegetarian specialties, aguas frescas and kombucha.",1,,https://www.trejostacos.com/,,Terminal 1,Departure Level,FOOD AND BEVERAGE FACILITIES,,,,LAX,310-310-5602,2018-09-05 08:50:31.043000000,2018-09-04 15:18:04.010000000,,,,,,,2019-04-11T00:00:02.000
1684,1120,ink.sack,,Ink.sack serves up a long list of classic sandwiches as well as some eclectic options.,1,,,,TBIT,Great Hall,FOOD AND BEVERAGE FACILITIES,,,,LAX,310-307-7532,2018-02-02 10:52:39.863000000,,,33.94331034,-118.41055974,380 World Way,Los Angeles,90045,2019-04-11T00:00:02.000
1829,1265,SeaLegs Wine Bar,,Sealegs dishes up bar bites and a range of farm fresh salads and sandwiches.,1,,,,Terminal 2,Departure Level,FOOD AND BEVERAGE FACILITIES,,,,LAX,(424) 227-8295,2018-02-05 07:16:52.750000000,,,33.94671256,-118.40412673,200 World Way,Los Angeles,90045,2019-04-11T00:00:02.000
1809,1245,Hudson LAXpress (Gate 35),,Hudson News features a wide array of last minute items for travelers.,1,,,,Terminal 3,Departure Level,GIFT SHOPS AND NEWS STANDS,,,,LAX,310-259-3368,2018-02-13 07:03:15.027000000,2017-10-04 11:58:09.817000000,,33.946678,-118.407226,300 World Way,Los Angeles,90045,2019-04-11T00:00:02.000
1947,1383,The New Stand (Gate 11A),,,1,,,,Terminal 1,,GIFT SHOPS AND NEWS STANDS,,,,LAX,415-741-4864,2018-10-04 11:11:46.227000000,2018-10-04 11:12:10.933000000,,,,,,,2019-04-11T00:00:02.000
391,251,Frontier Airlines,, ,1,,www.flyfrontier.com,F9,Terminal 5,Departure Level,AIR CARRIER,,,,LAX,(801) 401-9000,2017-05-13 04:37:32.427000000,2017-05-13 04:37:40.923000000,,,,500 World Way,Los Angeles,90045,2019-04-11T00:00:02.000
1317,829,United Airlines,All United Airlines passengers with Paper Tickets and Non Ticketed passengers check-in at Terminal 8.,,0,,www.united.com,,Terminal 8,,AIR CARRIER,,,,LAX,(800) 241-6522,2017-08-29 08:11:11.413000000,2017-08-29 08:11:02.860000000,,,,800 World Way,Los Angeles,90045,2019-04-11T00:00:02.000
1930,1366,Moshi,,"Priding itself on offering unique accessories, Moshi is your one-stop-shop when it comes to finding quality one-of-a-kind items. Make sure you stop by this Terminal 3 gem!",1,,,,Terminal 3,Departure Level,GIFT SHOPS AND NEWS STANDS,,,,LAX,310-259-3368,2018-02-08 15:41:07.020000000,2017-11-14 08:04:45.590000000,,,,,,,2019-04-11T00:00:02.000
1936,1372,Deli & Co,,Grab a sandwich togo from Deli & Co.,1,,,,Terminal 3,Departure Level,FOOD AND BEVERAGE FACILITIES,,,,LAX,866-820-1178,2018-02-05 06:35:16.790000000,2017-12-28 09:41:34.453000000,,,,,,,2019-04-11T00:00:02.000
1871,1307,DFS Duty Free - Fashion and Watches,,"After more than 50 years in the travel retail industry, DFS is recognized as a leading luxury shopping destination for the world traveler. Throughout our history, we have nurtured the relationships built with our customers, our brand partners and our empl",1,,,,TBIT,Great Hall,DUTY FREE SHOPS,,,,LAX,310-348-2727,2018-02-07 06:48:36.490000000,,,33.94360824,-118.41014858,380 World Way,Los Angeles,90045,2019-04-11T00:00:02.000
1793,1229,See's Candies,,"See's Candies offers chocolate, peanut brittle, truffles, nuts and so much more to tempt a sweet tooth.",0,,,,TBIT,Arrival Level,GIFT SHOPS AND NEWS STANDS,,,,LAX,310-642-0512,2018-02-05 09:07:53.327000000,,,33.94391924,-118.40870202,380 World Way,Los Angeles,90045,2019-04-11T00:00:02.000
1893,1329,California Pizza Kitchen,,"California Pizza Kitchen offers a variety of pizzas, sandwiches, and breakfast options.
",1,,,,Terminal 1,,FOOD AND BEVERAGE FACILITIES,,,,LAX,866-820-1178,2018-02-05 06:43:12.987000000,,,33.94692587791678,-118.401136706373,,,,2019-04-11T00:00:02.000
1942,1378,P.F. Chang's,,,1,,,,TBIT,Departure Level,FOOD AND BEVERAGE FACILITIES,,,,LAX,424-901-1566,2018-05-22 09:08:34.097000000,2018-05-17 14:57:08.390000000,,,,,,,2019-04-11T00:00:02.000
1870,1306,DFS Duty Free - Beauty and Spirits,,"After more than 50 years in the travel retail industry, DFS is recognized as a leading luxury shopping destination for the world traveler. Throughout our history, we have nurtured the relationships built with our customers, our brand partners and our empl",1,,,,TBIT,Great Hall,DUTY FREE SHOPS,,,,LAX,310-348-2773,2018-02-07 06:44:17.333000000,,,33.94305878,-118.41000618,380 World Way,Los Angeles,90045,2019-04-11T00:00:02.000
1946,1382,Pier No. 7,,,1,,,,Terminal 7,,GIFT SHOPS AND NEWS STANDS,,,,LAX,562-304-7480,2018-06-07 10:38:53.047000000,2018-06-07 10:37:55.063000000,,,,,,,2019-04-11T00:00:02.000
1952,1386,Einstein Bros. Bagels,,,1,,,,Terminal 1,Departure Level,FOOD AND BEVERAGE FACILITIES,,,,LAX,310-310-5602,2018-09-05 08:48:58.240000000,2018-08-27 11:23:45.063000000,,,,,,,2019-04-11T00:00:02.000
1860,1296,I Love LA,,"I Love LA offers airport shoppers a wide variety of items such as souvenirs, beverages, magazines, and more at reasonable prices.",1,,,,Terminal 1,Departure Level,GIFT SHOPS AND NEWS STANDS,,,,LAX,310-641-1512,2018-02-05 06:41:30.127000000,,,33.946641072262,-118.40104282905747,100 World Way,Los Angeles,90045,2019-04-11T00:00:02.000
444,292,ICE Currency Exchange Kiosk,Located in LAX  airport., ,,,,,Terminal 2,Arrival Level,"BUSINESS SERVICES, INSURANCE, CURRENCY EXCHANGE",,,,LAX,310-646-5818,2017-08-09 15:54:52.437000000,,,33.94533676,-118.40407122,200 World Way,Los Angeles,90045,2019-04-11T00:00:02.000
1840,1276,Wahoo's Fish Taco,,"Wahoo's Fish Taco serves up fresh tacos, burritos, and more.
",1,,,,Terminal 6,Departure Level,FOOD AND BEVERAGE FACILITIES,,,,LAX,310-433-6459,2018-02-05 13:35:47.260000000,,,33.94095227,-118.40191562,600 World Way,Los Angeles,90045,2019-04-11T00:00:02.000
1916,1352,Panda Express ,,"Since 1983, Panda Express has pioneered the quick-service Chinese food market and quickly became the quick serve Asian cuisine of choice for consumers and developers. Nearly 30 years and 1,500 stores later, Panda Express continues to provide quality Chine",1,,,,Terminal 8,Departure Level,FOOD AND BEVERAGE FACILITIES,,,,LAX,310-307-7547,2018-02-02 06:14:13.833000000,2017-06-15 12:32:41.320000000,,33.9427159972689,-118.39729846527268,,,,2019-04-11T00:00:02.000
1520,991,Qantas QF16 (Departure),,"QANTAS Flights 15, 16, 25, 26, 175, 176 operate from Terminal 4",0,,www.qantas.com,,TBIT,Departure Level,AIR CARRIER,,,,LAX,(800) 227-4500,,,,,,400 World Way,Los Angeles,90045,2019-04-11T00:00:02.000
1040,548,"U.S. Dept. of Agriculture, Dept. of Plant Protection",, ,,,,,TBIT,Arrival Level,"GOVERNMENT AGENCIES, AGRICULTURE",,,,LAX,(310) 215-2431,,,,,,380 World Way - Box N-21,Los Angeles,90045,2019-04-11T00:00:02.000
495,328,KLM Royal Dutch Airlines,, ,0,,www.klm.com,KL,TBIT,,AIR CARRIER,,,,LAX,(310) 646-1139,,,,,,380 World Way,Los Angeles,90045,2019-04-11T00:00:02.000
1863,1299,InterJet,"InterJet Passengers Terminal 3 for Check-in. Passengers will walk from Terminal 3 to Terminal B for departure.
Departures and Arrivals will operate at Terminal B.","InterJet Passengers Terminal 3 for Check-in. Passengers will walk from Terminal 3 to Terminal B for departure.
Departures and Arrivals will operate at Terminal B.",0,,www.interjet.com,,Terminal 3,Departure Level,AIR CARRIER,,,,LAX,(866) 285-8307,2018-08-16 09:39:03.593000000,2017-05-15 04:54:56.597000000,,,,300 World Way,Los Angeles,90045,2019-04-11T00:00:02.000
1928,1364,La Familia,,This vibrant restaurant will have you craving everything on the menu. Take a seat and bask in the moment while enjoying a delicious meal & refreshing beverage.,1,,,,Terminal 3,,FOOD AND BEVERAGE FACILITIES,,,,LAX,310-307-7499,2018-02-08 15:39:01.767000000,2017-10-23 11:30:44.700000000,,,,300 World Way,Los Angeles,90045,2019-04-11T00:00:02.000
1643,1079,Hollywood Style,,"Hollywood Style is a trendy gallery shop in Terminal 4 that includes an ever-changing selection of hip, LA-style fashionable apparel, accessories, sunglasses and luggage for fashion-forward men and women",1,,,,Terminal 4,Departure Level,GIFT SHOPS AND NEWS STANDS,,,,LAX,(310) 337-6761,2018-02-02 06:57:02.867000000,,,33.940678,-118.406951,400 World Way,Los Angeles,90045,2019-04-11T00:00:02.000
1845,1281,Tumi,,"Shop at Tumi for exceptional quality luggage and handbags.
",1,,,,Terminal 6,Departure Level,GIFT SHOPS AND NEWS STANDS,,,,LAX,310-590-1100,2018-02-05 13:40:39.133000000,,,33.94130088,-118.40210053,600 World Way,Los Angeles,90045,2019-04-11T00:00:02.000
1245,765,United Airlines,"All United Airlines passengers with ""E Tickects"" check-in at Terminal 7.",,0,,www.united.com,,Terminal 7,,AIR CARRIER,,,,LAX,(310) 342-9509,2017-08-29 08:09:31.873000000,2017-08-29 08:09:21.803000000,,,,700 World Way,Los Angeles,90045,2019-04-11T00:00:02.000
1536,1001,Spirit Airlines,,,0,,www.spiritair.com,,Terminal 5,T-5,AIR CARRIER,,,,LAX,(801) 401-2222,2017-05-15 03:05:41.300000000,2017-05-15 03:05:52.647000000,,,,500 World Way,Los Angeles,90045,2019-04-11T00:00:02.000
1617,1003,Virgin Australia,Virgin Australia passengers check-in at Terminal 3. Passengers will be bused from Terminal 3 to the Tom Bradley International Terminal (Terminal B) for departure. Arriving passengers may be met at Terminal B.,Passengers will check in at Terminal 3; walk to Terminal B where flights depart/arrive,0,,www.virginaustralia.com,,Terminal 3,Departure Level,AIR CARRIER,,,,LAX,(800)440-0260,2018-11-01 09:01:53.637000000,2018-11-01 09:01:14.543000000,,,,300 World Way,Los Angeles,90045,2019-04-11T00:00:02.000
1937,1373,Earthbar ,,"Earthbar offers healthy snacks, smoothies, and grab & go food options.",1,,,,Terminal 3,Departure Level,FOOD AND BEVERAGE FACILITIES,,,,LAX,866-820-1178,2018-02-05 07:42:02.593000000,2017-12-28 09:43:39.663000000,,,,,,,2019-04-11T00:00:02.000
833,553,U.S. Immigration and Naturalization Service,, ,,,,,TBIT,Arrival Level - Tom Bradley International Terminal,GOVERNMENT AGENCIES,,,,LAX,(310) 568-7500,,,,,,,,,2019-04-11T00:00:02.000
1801,1237,Angeleno ,,Shop at Angeleno Modern Luxury for all your travel needs,0,,,,TBIT,Ticketing Level,GIFT SHOPS AND NEWS STANDS,,,,LAX,310-259-3368,2018-02-02 12:14:04.127000000,,,33.94377851,-118.40852394,380 World Way,Los Angeles,90045,2019-04-11T00:00:02.000
1883,1319,XL Airways France,,,0,,www.xl.com,,Terminal 6,Departure Level,AIR CARRIER,,,,LAX,(877) 496-9889,2017-06-05 13:30:14.030000000,2017-06-05 13:30:22.810000000,,,,600 World Way,Los Angeles,90045,2019-04-11T00:00:02.000
1954,1388,PEI WEI Asian Diner,,,1,,,,Terminal 1,Departure Level,FOOD AND BEVERAGE FACILITIES,,,,LAX,310-310-5602,2018-09-05 08:49:35.277000000,2018-08-27 11:28:24.950000000,,,,,,,2019-04-11T00:00:02.000
1221,746,One Source,, ,,,,,TBIT,,GENERAL AIRPORT CLEANING SERVICES,,,,LAX,646-1313,,,,,,380 World Way,Los Angeles,90045,2019-04-11T00:00:02.000
1874,1310,Aer Lingus,,,0,,,,Terminal 2,Departure Level,AIR CARRIER,,,,LAX,(800) 474-7424,,,,,,200 World Way,Los Angeles,90045,2019-04-11T00:00:02.000
1620,1057,Klatch Coffee,,"Klatch is one of the few airport coffee shops to serve up drip coffee one cup at a time.
",1,,,,Terminal 7,Departure Level,FOOD AND BEVERAGE FACILITIES,,,,LAX,424-702-1141,2018-02-05 13:51:46.563000000,,,33.942240754913946,-118.39994446627042,700 World Way,Los Angeles,90045,2019-04-11T00:00:02.000
645,429,Pedus Building Service,, ,,,,TBIT,TBIT,Departure Level - Custodial Service,"CUSTODIAL SERVICE, GENERAL AIRPORT CLEANING SERVICES",,,,LAX,(310) 646-1313,,,,,,380 World Way,Los Angeles,90045,2019-04-11T00:00:02.000
1915,1351,Level Airlines,,,0,,,,TBIT,Departure Level,AIR CARRIER,,,,LAX,(800) 994-0704,2017-06-05 09:34:07.990000000,2017-06-05 09:34:07.980000000,,,,380 World Way,Los Angeles,90045,2019-04-11T00:00:02.000
43,28,Air France,, ,1,,www.airfrance.com,AF,TBIT,,AIR CARRIER,,,,LAX,(310) 646-5627,,,,,,380 World Way,Los Angeles,90045,2019-04-11T00:00:02.000
1920,1356,LA Life,,Shop for a variety of grab & go foods and snacks at LA Life.,1,,,,Terminal 3,Departure Level,FOOD AND BEVERAGE FACILITIES,,,,LAX,310-307-7499,2019-02-07 13:58:23.487000000,2017-06-27 15:49:45.267000000,,33.94663773469007,-118.40746806075265,,,,2019-04-11T00:00:02.000
1738,1174,DFS Duty Free,,DFS Duty Free offers a variety of products for travelers. Domestic passengers are invited to purchase everything but liquor and tobacco.,1,,,,Terminal 3,Departure Level,DUTY FREE SHOPS,,,,LAX,310-348-2740,2018-02-05 07:41:08.100000000,,,33.94604109949319,-118.40719498035668,300 World Way,Los Angeles,90045,2019-04-11T00:00:02.000
720,489,Singapore Airlines,Located in Tom Bradley International Terminal (TBIT)., ,,,www.singaporeair.com,SQ,TBIT,,AIR CARRIER,,,,LAX,(866) 767-2247,,,,,,380 World Way,Los Angeles,90009,2019-04-11T00:00:02.000
1861,1297,Barney's Beanery,,"Barney's Beanery features bar bites, burgers, Mexican, and much more.",1,,,,Terminal 2,Departure Level,FOOD AND BEVERAGE FACILITIES,,,,LAX,424-393-4318,2018-02-05 06:52:17.287000000,,,33.94590948,-118.40407631,200 World Way,Los Angeles,90045,2019-04-11T00:00:02.000
1748,1184,Farmers Market To Go,,Farmers Market offers various healthy options for travelers.,1,,,,Terminal 5,Departure Level - Food Court,FOOD AND BEVERAGE FACILITIES,,,,LAX,562-381-3641,2018-02-05 10:00:10.680000000,,,33.940877,-118.404192,500 World Way,Los Angeles,90045,2019-04-11T00:00:02.000
208,136,Cathay Pacific Airways,Located in Tom Bradley International Terminal (TBIT)., ,,,www.cathaypacific.com,CX,TBIT,,AIR CARRIER,,,,LAX,(800) 233-2742,,,,,,380 World Way,Los Angeles,90045,2019-04-11T00:00:02.000
1742,1178,Saudia Airlines,,,0,,,,TBIT,Departure Level,AIR CARRIER,,,,LAX,(800) 472-8342,2018-08-16 09:29:36.890000000,2018-08-16 09:30:03.877000000,,,,380 World Way,Los Angeles,90045,2019-04-11T00:00:02.000
1573,1030,Alitalia,,,0,,www.alitalia.com,,TBIT,Departure Level-  Tom Bradley International,AIR CARRIER,,,,LAX,(800) 223-5730,,,,,,380 World Way,Los Angeles,90045,2019-04-11T00:00:02.000
517,339,LATAM,Located in Tom Bradley International Terminal (TBIT)., ,,,www.latam.com,LA,TBIT,,AIR CARRIER,,,,LAX,(310) 646-1954,,2016-12-21 10:45:49.027000000,,,,380 World Way,Los Angeles,90045,2019-04-11T00:00:02.000
1900,1336,Kentucky Fried Chicken,,KFC is known worldwide for their fried chicken.,1,,,,TBIT,Departure Level,FOOD AND BEVERAGE FACILITIES,,,,LAX,310-307-7533,2018-02-02 10:59:08.710000000,2016-09-09 13:21:46.250000000,,,,,,,2019-04-11T00:00:02.000
650,432,Philippine Airlines,Located in Tom Bradley International Terminal (TBIT)., ,,,www.philippineairlines.com,PR,TBIT,,AIR CARRIER,,,,LAX,(310) 646-2693,,,,,,380 World Way,Los Angeles,90045,2019-04-11T00:00:02.000
225,150,China Airlines,Located in Tom Bradley International Terminal (TBIT)., ,,,www.china-airlines.com,CI,TBIT,,AIR CARRIER,,,,LAX,(800) 227-5118,,,,,,380 World Way,Los Angeles,90045-6439,2019-04-11T00:00:02.000
1717,1153,Coles,,"Coles, the originators of the french dip, offer four versions and various sides to meet everyone's tastes.",1,,,,Terminal 4,Departure Level - Food Court,FOOD AND BEVERAGE FACILITIES,,,,LAX,310-646-3472,2018-02-05 09:01:02.417000000,,,33.940695,-118.406552,400 World Way,Los Angeles,90045,2019-04-11T00:00:02.000
1721,1157,Petrossian Caviar & Champagne Bar,,Visit Petrossian Caviar and Champagne Bar for a full service restaurant and bar serving fine foods and spirits.,1,,,,TBIT,Great Hall,FOOD AND BEVERAGE FACILITIES,,,,LAX,424-901-1206,2018-02-02 10:55:26.730000000,,,33.94354305,-118.41055418,380 World Way,Los Angeles,90045,2019-04-11T00:00:02.000
1644,1080,Mattel Experience,,"The number one toy company in the world got its start in a humble garage workshop in Southern California back in 1945. Now “The Mattel Experience” comes to LAX, with all the premier brands and licenses that Mattel has made famous: Hot Wheels, Matchbox, Ba",1,,,,Terminal 5,Departure Level,GIFT SHOPS AND NEWS STANDS,,,,LAX,310-641-1439,2018-02-02 07:07:19.983000000,,,33.941476,-118.404588,500 World Way,Los Angeles,90045,2019-04-11T00:00:02.000
1753,1189,LAMILL Coffee,,"Get buzzed at Lamill Coffee, a chic newcomer to the coffee scene from Los Angeles’ trendy Siverlake neighborhood.
Located post-security in TBIT, Lamill introduces a fresh, new culinary approach to coffee that goes far beyond standard
coffeehouse fare, i",1,,,,TBIT,North Concourse,FOOD AND BEVERAGE FACILITIES,,,,LAX,866-820-1178,2018-02-02 06:04:44.797000000,,,33.945382,-118.410885,380 World Way,Los Angeles,90045,2019-04-11T00:00:02.000
1822,1258,Starbucks,,"Starbucks is an internationally known coffee shop offering drinks, snacks, and to-go items.",0,,,,Terminal 2,Arrival Level,FOOD AND BEVERAGE FACILITIES,,,,LAX,310-646-3472,2018-02-05 08:17:18.100000000,,,33.945443,-118.40349754,200 World Way,Los Angeles,90045,2019-04-11T00:00:02.000
228,151,China Eastern,Located in Tom Bradley International Terminal (TBIT)., ,,,www.ce-air.com,MU,TBIT,,AIR CARRIER,,,,LAX,(626) 583-1500,,,,,,380 World Way,Los Angeles,90045,2019-04-11T00:00:02.000
1733,1169,Starbucks,,"Starbucks is an internationally known coffee shop offering drinks, snacks, and to-go items.",1,,,,TBIT,Great Hall,FOOD AND BEVERAGE FACILITIES,,,,LAX,310-307-7536,2018-02-05 07:55:13.910000000,,,33.94265637,-118.41048085,380 World Way,Los Angeles,90045,2019-04-11T00:00:02.000
1882,1318,Mokulele Airlines,,,0,,,,Terminal 6,Departure Level,AIR CARRIER,,,,LAX,(800) 260-7070,,,,,,600 Wolrd Way,Los Angeles,90045,2019-04-11T00:00:02.000
1714,1150,La Provence Patisserie and Cafe,,"La Provence Patisserie and Cafe brings a taste of France to pastries, donuts, and desserts.",1,,,,Terminal 4,Departure Level - Food Court,FOOD AND BEVERAGE FACILITIES,,,,LAX,310-646-3472,2018-02-05 09:04:32.840000000,,,33.940695,-118.406552,400 World Way,Los Angeles,90045,2019-04-11T00:00:02.000
1956,1390,Kiehl's,,,1,,,,Terminal 1,,GIFT SHOPS AND NEWS STANDS,,,,LAX,323-455-2213,2018-09-25 09:38:00.460000000,2018-09-25 09:34:49.137000000,,,,100 World Way,Los Angeles,90045,2019-04-11T00:00:02.000
1156,692,Sun Country,, ,0,,www.suncountry.com,,Terminal 5,Departure Level,AIR CARRIER,,,,LAX,(800) 359-6786,2017-05-13 04:36:29.480000000,2017-05-13 04:36:38.890000000,,,,500 World Way,Los Angeles,90045,2019-04-11T00:00:02.000
1758,1194,The Coffee Bean & Tea Leaf,,"The Coffee Bean & Tea Leaf has an assortment of specialty coffee and blended coffee drinks, as well as tea and baked goods.",1,,,,Terminal 7,Departure Level - Food Court,FOOD AND BEVERAGE FACILITIES,,,,LAX,310-258-9775,2018-03-14 12:10:15.360000000,,,33.941398,-118.399436,,,,2019-04-11T00:00:02.000
1653,1089,Bartel's Harley Davidson Store,,"Bartel's Harley Davidson Store offers a wide assortment of apparel, handbags, and Harley gear.
",1,,,,Terminal 7,Departure Level,GIFT SHOPS AND NEWS STANDS,,,,LAX,(310) 568-8840,2018-02-05 13:52:14.467000000,2017-08-09 14:12:50.583000000,,33.941982,-118.399821,700 World Way,Los Angeles,90045,2019-04-11T00:00:02.000
1836,1272,Hainan Airlines,,,0,,www.hainanairlines.com,,TBIT,Departure Level,AIR CARRIER,,,,LAX,,2017-05-08 14:57:17.660000000,2017-04-14 07:41:06.890000000,,,,380 World Way,Los Angeles,90045,2019-04-11T00:00:02.000
1707,1143,Hollywood Reporter,,"The Hollywood Reporter is a widely trusted resource for breaking entertainment news, movie and TV reviews, movie trailers, TV clips and analysis.  As the entertainment industry's flagship media brand, the Hollywood Reporter brings in-depth reporting, anal",1,,,,TBIT,South Concourse,GIFT SHOPS AND NEWS STANDS,,,,LAX,310-259-3368,2018-02-02 07:28:32.723000000,,,33.940265,-118.410217,,,,2019-04-11T00:00:02.000
1790,1226,USA Today Travel Zone,,Shop at USA Today for last minute snacks and souvenirs.,0,,,,TBIT,Arrival Level,GIFT SHOPS AND NEWS STANDS,,,,LAX,(310) 258-0223,2018-02-02 12:16:29.687000000,,,33.9431916,-118.40860471,380 World Way,Los Angeles,90045,2019-04-11T00:00:02.000
1692,1128,The Coffee Bean & Tea Leaf,,"The Coffee Bean & Tea Leaf has an assortment of specialty coffee and blended coffee drinks, as well as tea and baked goods.",1,,,,Terminal 5,Departure Level,FOOD AND BEVERAGE FACILITIES,,,,LAX,310-321-8950,2018-02-05 06:45:04.217000000,2017-08-09 13:47:39.457000000,,33.941555,-118.404345,500 World Way,Los Angeles,90045,2019-04-11T00:00:02.000
1955,1389,Chick-fil-A,"American fast food restaurant chain headquartered in the city of College Park, Georgia, specializing in chicken sandwiches.","American fast food restaurant chain headquartered in the city of College Park, Georgia, specializing in chicken sandwiches.",1,,https://www.chick-fil-a.com/,,Terminal 1,,FOOD AND BEVERAGE FACILITIES,,,,LAX,310-310-5602,2018-09-05 08:48:25.497000000,2018-09-04 15:21:20.590000000,,,,,,,2019-04-11T00:00:02.000
1878,1314,The Kitchen by Wolfgang Puck,,"The Kitchen Counter features freshly made sandwiches, salads, and grab & go snacks.
",1,,,,Terminal 6,Departure Level,FOOD AND BEVERAGE FACILITIES,,,,LAX,310-307-7526,2018-02-05 13:47:47.203000000,,,33.94171886,-118.40218645,600 World Way,Los Angeles,90045,2019-04-11T00:00:02.000
1926,1362,Food & Bounty,,,1,,,,Terminal 4,Departure Level,FOOD AND BEVERAGE FACILITIES,,,,LAX,310-307-7522,2017-10-02 11:45:42.743000000,2017-10-02 11:44:34.983000000,,,,,,,2019-04-11T00:00:02.000
1865,1301,SAS (Scandanavian Airlines),,,1,,www.flysas.com,,TBIT,Departure Level,AIR CARRIER,,,,LAX,(800) 221-2350,,,,,,380 World Way,Los Angeles,90045,2019-04-11T00:00:02.000
1705,1141,Bliss,,"Everything the traveler needs to feel good. Bath and spa products from Bliss, from sunscreens to soaps to soothing lotions for all skin types.  ",1,,,,TBIT,South Concourse,GIFT SHOPS AND NEWS STANDS,,,,LAX,(424) 750-9001,2018-02-02 07:25:31.440000000,,,33.94112,-118.41034,380 World Way,Los Angeles,90045,2019-04-11T00:00:02.000
36,24,Air Canada,, ,0,,www.aircanada.ca,AC,Terminal 6,,AIR CARRIER,,,,LAX,(888) 247-2262,2017-05-17 04:24:14.940000000,2017-05-17 04:24:24.033000000,,,,600 World Way,Los Angeles,90045,2019-04-11T00:00:02.000
1066,651,United Airlines,"All United Premier, First Class, and Business Class passengers check- in at Terminal 6","All United Premier, First Class and Business Class passengers check-in at Terminal 6",0,,www.united.com,,Terminal 6,,AIR CARRIER,,,,LAX,(310) 342-9509,2017-08-29 08:11:37.853000000,2017-08-29 08:11:27.663000000,,,,600 World Way,Los Angeles,90045,2019-04-11T00:00:02.000
1922,1358,Xiamen Airlines,,,0,,www.xiamen.com,,TBIT,Departure Level,AIR CARRIER,,,,LAX,(844) 629-5557,2017-11-28 12:40:19.807000000,2017-07-11 08:42:42.387000000,,,,380 World Way,Los Angeles,90045,2019-04-11T00:00:02.000
806,541,Travelers Info-VIP,, ,,,www.lawa.org/vip,,Terminal 3,Arrival Level,TRAVELERS ASSISTANCE,,,,LAX,(310) 646-2273,,,,,,300 World Way,Los Angeles,90045,2019-04-11T00:00:02.000
1811,1247,Cantina Laredo,,"Have a cocktail with your burrito and queso at Cantina Laredo, a trendy Mexican cafe.",0,,,,TBIT,Arrival Level,FOOD AND BEVERAGE FACILITIES,,,,LAX,424-901-1294,2018-02-02 12:17:40.367000000,,,33.94329368,-118.40866987,380 World Way,Los Angeles,90045,2019-04-11T00:00:02.000
1843,1279,American Airlines,,American Airlines flight operating from Gates 50A/50B/53A/53B arrive and depart in Terminal 5,0,,www.aa.com,,Terminal 5,Departure Level,AIR CARRIER,,,,LAX,(800) 433-7300,2017-07-10 14:15:40.963000000,2017-07-10 14:15:58.680000000,,,,500 World Way,Los Angeles,90045,2019-04-11T00:00:02.000
451,292,ICE Currency Exchange Kiosk,Located in LAX  airport., ,,,,,TBIT,North Concourse,"BUSINESS SERVICES, INSURANCE, CURRENCY EXCHANGE",,,,LAX,310-417-0364,2017-08-01 08:57:59.670000000,,,33.94397816,-118.40869457,380 World Way,Los Angeles,90045,2019-04-11T00:00:02.000
1258,778,Avianca Airlines,"Avianca Passengers Terminal 3 for Check-in. Passengers will walk from Terminal 3 to Terminal B for departure.
Departures and Arrivals will operate at Terminal B.","Avianca Passengers Terminal 3 for Check-in. Passengers will walk from Terminal 3 to Terminal B for departure.
Departures and Arrivals will operate at Terminal B.",0,,,,Terminal 3,Departure Level,AIR CARRIER,,,,LAX,(800) 284-2622,2018-08-16 08:34:40.917000000,2017-05-15 03:31:41.370000000,,,,300 World Way,Los Angeles,90045,2019-04-11T00:00:02.000
1862,1298,Access Hollywood,,"Shop for snacks and gifts at Access Hollywood.
",0,,,,Terminal 6,Arrival Level,GIFT SHOPS AND NEWS STANDS,,,,LAX,310-259-3368,2018-02-05 14:20:53.640000000,,,33.94286285707541,-118.40191454698731,600 World Way,Los Angeles,90045,2019-04-11T00:00:02.000
1794,1230,Virgin Mobile/Boost Mobile,,"Brand-name electronics, accessories, chargers, cameras, computer bags and accessories. Tech on the Go focuses on what the wired traveler needs, especially power and sound. Here can be found portable electronic devices, headphones, cases, chargers, accesso",0,,,,TBIT,Arrival Level,GIFT SHOPS AND NEWS STANDS,,,,LAX,310-642-0486,2018-02-02 07:26:41.040000000,,,,,380 World Way,Los Angeles,90045,2019-04-11T00:00:02.000
1648,1084,See's Candies,,"See's Candies offers chocolate, peanut brittle, truffles, nuts and so much more to tempt a sweet tooth.",1,,,,Terminal 5,Departure Level,GIFT SHOPS AND NEWS STANDS,,,,LAX,(310) 338-0456,2018-02-05 09:07:34,,,33.941812,-118.404367,500 World Way,Los Angeles,90045,2019-04-11T00:00:02.000
924,33,Fiji Airways,Located in Tom Bradley International Terminal (TBIT)., ,,,www.fijiairways.com,FJ,TBIT,,AIR CARRIER,,,,LAX,(866) 767-2247,,,,,,380 World Way,Los Angeles,90045,2019-04-11T00:00:02.000
805,541,Travelers Info-VIP,, ,,,www.lawa.org/vip,,Terminal 2,Arrival Level,TRAVELERS ASSISTANCE,,,,LAX,(310) 646-2272,,,,,,200 World Way,Los Angeles,90045,2019-04-11T00:00:02.000
1727,1163,Bvlgari,,"Leading the lineup of luxury brands in LAX is the spectacular Bulgari shop. This is truly the last word in jewelry, watches and accessories – Italian style. A destination in itself, this store is not to be missed!",1,,,,TBIT,Great Hall,GIFT SHOPS AND NEWS STANDS,,,,LAX,424-227-9844,2018-02-02 07:20:52.030000000,,,33.94316086,-118.4102669,380 World Way,Los Angeles,90045,2019-04-11T00:00:02.000
130,79,Argenbright ,Security Screening Services provided at LAX., ,,,,,Terminal 5,Departure Level,CONTRACT SECURITY SERVICES,,,,LAX,(310) 649-1201,,,,,,500 World Way,Los Angeles,90045,2019-04-11T00:00:02.000
1931,1367,Soundstage Market by Hudson,,This convenient grab-and-go station offers refreshing beverages and tasty snacks to make your flight an enjoyable one.,1,,,,Terminal 3,Departure Level,GIFT SHOPS AND NEWS STANDS,,,,LAX,310-259-3368,2018-02-08 15:40:38.017000000,2017-11-14 08:07:48.473000000,,,,,,,2019-04-11T00:00:02.000
1610,1050,DFS Duty Free,,"DFS Duty Free offers a variety of products for travelers. Domestic passengers are invited to purchase everything but liquor and tobacco.
",1,,,,Terminal 7,Departure Level,DUTY FREE SHOPS,,,,LAX,(310) 348-2620,2018-02-05 13:53:03.783000000,,,33.942102,-118.399554,700 World Way,Los Angeles,90045,2019-04-11T00:00:02.000
1645,1081,Rip Curl,,"Rip Curl is the most recognized name on the planet for high performance surf, ski and snowboarding equipment and apparel. This new store celebrates the outdoor California lifestyle with all the latest board shorts, beachwear, headgear and other high-perfo",1,,,,Terminal 5,Departure Level,GIFT SHOPS AND NEWS STANDS,,,,LAX,(310) 417-8630,2018-02-02 07:07:53.520000000,,,33.941305,-118.404556,500 World Way,Los Angeles,90045,2019-04-11T00:00:02.000
1879,1315,The Wine Bar by Wolfgang Puck,,"Enjoy a cocktail and order from the neighboring Wolfgang Puck food options at The Marketplace Bar.
",1,,,,Terminal 6,Departure Level,FOOD AND BEVERAGE FACILITIES,,,,LAX,310-307-7526,2018-02-05 13:49:10.073000000,,,33.94185126,-118.40221077,,,,2019-04-11T00:00:02.000
1827,1263,CNBC Smartshop,,"Shop for last minute souvenirs, medicine, or snacks at CNBC News.",1,,,,Terminal 2,Departure Level,GIFT SHOPS AND NEWS STANDS,,,,LAX,312-375-1081,2018-02-05 06:53:00.877000000,,,33.94598022770159,-118.4042035855573,200 World Way,Los Angeles,90045,2019-04-11T00:00:02.000
1818,1254,BUILT (Custom Burgers),,BUILT features fully customizable burgers.,1,,,,Terminal 2,Departure Level,FOOD AND BEVERAGE FACILITIES,,,,LAX,310-301-9008,2018-02-05 07:09:29.463000000,,,33.94630253,-118.40422743,200 World Way,Los Angeles,90045,2019-04-11T00:00:02.000
809,541,Travelers Info-VIP,, ,,,www.lawa.org/vip,,Terminal 6,Arrival Level,TRAVELERS ASSISTANCE,,,,LAX,(310) 646-2276,,,,,,600 World Way,Los Angeles,90045,2019-04-11T00:00:02.000
1731,1167,Hugo Boss,,"The world-renowned men’s high-style apparel brand is presented in a sleek and contemporary store, complete with dressing room. The Hugo Boss store is THE high-end fashion and lifestyle brand for men, known the world over.",1,,,,TBIT,Great Hall,GIFT SHOPS AND NEWS STANDS,,,,LAX,(424) 750-9982,2018-02-02 07:05:49.410000000,,,33.94367258,-118.41059008,380 World Way,Los Angeles,90045,2019-04-11T00:00:02.000
691,465,Riscomp Industries,, ,,,,,Terminal 5,T-5,,,,,LAX,(310) 646-0361,,,,,,,,,2019-04-11T00:00:02.000
1841,1277,Boutique Airlines,,,0,,www.boutiqueair.com/,,Terminal 6,Departure Level,AIR CARRIER,,,,LAX,(855) 268-8478,2017-05-13 04:44:17.570000000,2017-05-13 04:44:29.467000000,,,,600 World Way,Los Angeles,90045,2019-04-11T00:00:02.000
1957,1391,ICE Currecy Exchange Kiosk - Arrivals,,,1,,,,TBIT,,BUSINESS SERVICES,,,,LAX,310-417-0366,2019-01-31 07:32:15.040000000,2018-10-11 12:50:15.443000000,,,,,,,2019-04-11T00:00:02.000
1757,1193,Loteria!! Grill,,¡Loteria! Grill provides regional Mexican dishes with fresh and homemade salsas.,1,,,,Terminal 7,Departure Level - Food Court,FOOD AND BEVERAGE FACILITIES,,,,LAX,310-258-9775,2018-02-05 09:59:44.503000000,,,33.941398,-118.399436,700 World Way,Los Angeles,90045,2019-04-11T00:00:02.000
1803,1239,Starbucks      ,,"Starbucks is an internationally known coffee shop offering drinks, snacks, and to-go items.",1,,,,Terminal 2,Departure Level,FOOD AND BEVERAGE FACILITIES,,,,LAX,310-646-3472,2018-02-05 07:17:32.123000000,,,33.94651383,-118.40416333,200 World Way,Los Angeles,90045,2019-04-11T00:00:02.000
1872,1308,Thomas Cook Airlines,,,0,,,,Terminal 6,Departure Level,AIR CARRIER,,,,LAX,(855) 759-3665,2017-07-10 14:26:28.013000000,2017-07-10 14:26:20.350000000,,,,600 World Way,Los Angeles,90045,2019-04-11T00:00:02.000
1550,1009,Jet Blue,,,0,,www.jetblue.com,,Terminal 5,T-5,AIR CARRIER,,,,LAX,(800) 538-2583,2017-05-17 00:34:47.837000000,2017-05-17 00:35:00.003000000,,,,500 World Way,Los Angeles,90045,2019-04-11T00:00:02.000
988,65,American Airlines,American Airlines International Departures and Arrivals operate in Terminal 4. , American Airlines International Departures and Arrivals operate in Terminal 4.   ,0,,www.aa.com,AA,Terminal 4,T-4,AIR CARRIER,,,,LAX,(310) 646-3593,2017-07-03 08:08:35.297000000,,,,,400 World Way,Los Angeles,90045,2019-04-11T00:00:02.000
1912,1348,Delta Airlines,,,0,,,,Terminal 3,Departure Level,AIR CARRIER,,,,LAX,(800) 241-4141,2017-05-13 03:38:02.703000000,2017-05-13 03:38:11.020000000,,,,300 World Way,Los Angeles,90045,2019-04-11T00:00:02.000
256,169,Copa Airlines ,Copa flights check-in at Terminal 3. Guests will walk from Terminal 3 to the Tom Bradley International Terminal (Terminal B) for flight departure. Copa arriving passengers may be met at the Tom Bradley International Terminal (Terminal B), Check-in Terminal 3. Passengers will walk to the Tom Bradley International Terminal (Terminal B) for flight departure.,0,,www.copaair.com,CM,TBIT,International Arrivals,AIR CARRIER,,,,LAX,(800) 359-2672,2017-07-03 08:17:30.853000000,2017-04-07 07:13:49.110000000,,,,380 World Way,Los Angeles,90045,2019-04-11T00:00:02.000
136,81,Asiana Airlines,Located in Tom Bradley International Terminal (TBIT)., ,,,www.flyasiana.com,OZ,TBIT,,AIR CARRIER,,,,LAX,(310) 646-0300,,,,,,380 World Way,Los Angeles,90045,2019-04-11T00:00:02.000
1489,976,Hudson Booksellers,,Grab a novel before your flight at Hudson Booksellers.,1,,,,Terminal 4,Departure Level,GIFT SHOPS AND NEWS STANDS,,,,LAX,(310) 568-0416,2018-02-05 09:31:02.160000000,,,33.941114,-118.406897,400 World Way,Los Angeles,90045,2019-04-11T00:00:02.000
1703,1139,The Economist,,"From electronics to candy, The Economist seeks to please every traveler's needs.",1,,,,TBIT,North Concourse,GIFT SHOPS AND NEWS STANDS,,,,LAX,(310) 665-9833,2018-02-02 11:08:06.223000000,,,33.944781,-118.410613,380 World Way,Los Angeles,90045,2019-04-11T00:00:02.000
1685,1121,Vino Volo,,Vino Volo offers various small plates and wines. They also sell bottles to go.,1,,,,TBIT,Great Hall,FOOD AND BEVERAGE FACILITIES,,,,LAX,310-215-3301,2018-02-02 10:51:55.053000000,,,33.94321449,-118.41052878,380 World Way,Los Angeles,90045,2019-04-11T00:00:02.000
1875,1311,Belkin,,"Shop for forgotten phone accessories at the Belkin kiosk.
",1,,,,Terminal 6,Departure Level,GIFT SHOPS AND NEWS STANDS,,,,LAX,310-321-8828,2018-02-05 13:39:51.120000000,,,33.9411972,-118.40210431,600 World Way,Los Angeles,90045,2019-04-11T00:00:02.000
450,292,ICE Currency Exchange Kiosk,Located in LAX  airport., ,0,,,,Terminal 7,Departure Level,"BUSINESS SERVICES, INSURANCE, CURRENCY EXCHANGE",,,,LAX,(310) 646-7934,2017-08-09 14:46:54.667000000,,,33.941507,-118.399652,700 World Way,Los Angeles,90045,2019-04-11T00:00:02.000
334,222,EVA Air,Located in Tom Bradley International Terminal (TBIT)., ,0,,www.evaair.com.tw,BR,TBIT,,AIR CARRIER,,,,LAX,(800) 695-1188,,,,,,"380 World Way, Box N-25",Los Angeles,90045,2019-04-11T00:00:02.000
1889,1325,Univision,,"Shop for souvenirs, snacks, and more at Univision.",1,,,,Terminal 2,Departure Level,GIFT SHOPS AND NEWS STANDS,,,,LAX,323-590-3465,2018-02-05 07:03:46.367000000,,,33.9464630682438,-118.40394229700257,200 World Way,Los Angeles,90045,2019-04-11T00:00:02.000
1698,1134,iStore Boutique,,iStore stocks a wide variety of apple electronics and accessories.,1,,,,TBIT,Great Hall,GIFT SHOPS AND NEWS STANDS,,,,LAX,(310) 258-2406,2018-02-02 10:54:23.230000000,,,33.94346089,-118.41055763,380 World Way,Los Angeles,90045,2019-04-11T00:00:02.000
452,292,ICE Currency Exchange Kiosk,Located in LAX  airport., ,0,,,,Terminal 2,Departure Level,"BUSINESS SERVICES, INSURANCE, CURRENCY EXCHANGE",,,,LAX,310-642-9225,2017-08-01 08:57:59.813000000,,,33.94585952,-118.40391666,200 World Way,Los Angeles,90045,2019-04-11T00:00:02.000
1892,1328,Starbucks (Arrivals),,"Starbucks is an internationally known coffee shop offering drinks, snacks, and to-go items.",0,,,,Terminal 6,Arrival Level,FOOD AND BEVERAGE FACILITIES,,,,LAX,310-307-7548,2018-02-05 08:17:55.057000000,,,33.94277385116231,-118.40230078508546,,,,2019-04-11T00:00:02.000
1821,1257,Sunset News,,"Shop for snacks, souvenirs, and more at Sunset News.
",1,,,,Terminal 6,Departure Level,GIFT SHOPS AND NEWS STANDS,,,,LAX,424-227-8469,2018-02-05 13:49:58.967000000,,,33.94225258,-118.40211076,600 World Way,Los Angeles,90045,2019-04-11T00:00:02.000
146,90,Aviation Safeguards (Security Screening),Services provided at LAX.  , ,,,,,Terminal 3,Mailing Address,CONTRACT SECURITY SERVICES,,,,LAX,(310) 641-4671,,,,,,300 World Way,Los Angeles,90045,2019-04-11T00:00:02.000
1710,1146,See's Candies,,"See's Candies offers chocolate, peanut brittle, truffles, nuts and so much more to tempt a sweet tooth.",1,,,,Terminal 4,Departure Level,GIFT SHOPS AND NEWS STANDS,,,,LAX,310-410-9733,2018-02-05 09:05:51.880000000,,,33.940818,-118.406664,400 World Way,Los Angeles,90045,2019-04-11T00:00:02.000
1704,1140,See's Candies,,"See's Candies offers chocolate, peanut brittle, truffles, nuts and so much more to tempt a sweet tooth.",1,,,,TBIT,North Concourse,GIFT SHOPS AND NEWS STANDS,,,,LAX,(310) 417-4078,2018-02-05 09:07:05.943000000,,,33.945509,-118.410835,380 World Way,Los Angeles,90045,2019-04-11T00:00:02.000
1702,1138,Bead Factory,,"Offering beads from all over the world, the Bead Factory features a wide selection of jewelry, watches and women's apparel.",1,,,,TBIT,North Concourse,GIFT SHOPS AND NEWS STANDS,,,,LAX,310-258-9722,2018-02-02 11:02:37.393000000,,,33.945347,-118.410807,380 World Way,Los Angeles,90045,2019-04-11T00:00:02.000
1848,1284,SOL Surf,,Shop for surf and beachwear at Sol Surf.,1,,,,Terminal 1,Departure Level,GIFT SHOPS AND NEWS STANDS,,,,LAX,310-641-1538,2018-02-05 06:40:46.570000000,,,33.946647,-118.4013,100 World Way,Los Angeles,90045,2019-04-11T00:00:02.000
1696,1132,Tumi,,"Since 1975, Tumi has been creating world-class business and travel essentials designed to upgrade, uncomplicate and beautify all aspects of life on the move. The Tumi store in LAX is a perfect example of the brand’s reach and power. Trust Tumi for  luxury",1,,,,TBIT,Great Hall,GIFT SHOPS AND NEWS STANDS,,,,LAX,(424) 800-2315,2018-02-02 07:20:05.440000000,,,33.94379658,-118.4106001,380 World Way,Los Angeles,90045,2019-04-11T00:00:02.000
1635,1071,Carl's Jr ,,"Carl's Jr. is an American-based fast-food restaurant chain operating in the Western and Southwestern states that has
landed in LAX Terminal 8 to bring to its guests one of the best burgers in town!",1,,,,Terminal 8,Departure Level,FOOD AND BEVERAGE FACILITIES,,,,LAX,866-820-1178,2018-02-02 06:04:06.967000000,2018-05-24 14:16:19.137000000,,33.942557,-118.397378,800 World Way,Los Angeles,90045,2019-04-11T00:00:02.000
1747,1183,Monsieur Marcel Gourmet Market & Bistro,,Monsieur Marcel is a popular gourmet market and bistro featuring healthy organic options.,1,,,,Terminal 5,Departure Level - Food Court,FOOD AND BEVERAGE FACILITIES,,,,LAX,562-381-3641,2018-02-05 09:58:21.470000000,,,33.940877,-118.404192,500 World Way,Los Angeles,90045,2019-04-11T00:00:02.000
1813,1249,SPANX,,"Shop for shapewear, hosiery, apparel, and more at Spanx.",1,,,,Terminal 2,Departure Level,GIFT SHOPS AND NEWS STANDS,,,,LAX,(424) 277-3767,2018-02-05 06:54:25.163000000,,,33.94624973297926,-118.4038946248935,200 World Way,Los Angeles,90045,2019-04-11T00:00:02.000
1921,1357,Starbucks ,,"Starbucks is an internationally known coffee shop offering drinks, snacks, and to-go items.",1,,,,Terminal 3,Departure Level,FOOD AND BEVERAGE FACILITIES,,,,LAX,310-307-7499,2018-02-05 07:52:45.857000000,2017-06-27 15:55:25.847000000,,33.9466633227381,-118.4072977404802,,,,2019-04-11T00:00:02.000
1830,1266,SLAPFISH Modern Seafood Shack,,"Slapfish serves up a variety of seafood including: clam chowder, lobster rolls, fish & chips, and more.",1,,,,Terminal 2,Departure Level,FOOD AND BEVERAGE FACILITIES,,,,LAX,424-227-9380,2018-02-05 06:59:21.410000000,,,33.94632636,-118.40400555,200 World Way,Los Angeles,90045,2019-04-11T00:00:02.000
1944,1380,LA Life,,,1,,,,Terminal 7,Departure Level,FOOD AND BEVERAGE FACILITIES,,,,LAX,310-258-9775,2019-02-07 14:01:17.860000000,2018-05-31 12:52:55.127000000,,,,,,,2019-04-11T00:00:02.000
1655,1091,People News,,"From Pippa to Kim to Lindsay…the world’s first and still most popular entertainment magazine brings the industry alive each week. Now the excitement and name recognition of People comes to Terminal 8, with a full-service newsstand that is at heart a Hudso",1,,,,Terminal 8,Departure Level,GIFT SHOPS AND NEWS STANDS,,,,LAX,310-337-6727,2018-02-02 07:15:58.483000000,,,33.941479,-118.397147,800 World Way,Los Angeles,90045,2019-04-11T00:00:02.000
113,67,American Building Maintenance (ABM),, ,,,,,Terminal 2,Departure Level,"CUSTODIAL SERVICE, GENERAL AIRPORT CLEANING SERVICES",,,,LAX,(310) 670-3057,,,,,,200 World Way,Los Angeles,90045,2019-04-11T00:00:02.000
1695,1131,Porsche Design,,The luxury car brand Porsche offers a wide range of apparel and accessories for both men and women.,1,,,,TBIT,Great Hall,GIFT SHOPS AND NEWS STANDS,,,,LAX,310-216-9320,2018-02-02 10:57:32.633000000,,,33.94372728,-118.41059899,380 World Way,Los Angeles,90045,2019-04-11T00:00:02.000
1927,1363,The New Stand (Gate 16),,"The New Stand shop carries a variety of merchandise. From new media to high fashion, and weird toys to other interesting finds; you won’t come across anything quite like this.",1,,,,Terminal 1,,GIFT SHOPS AND NEWS STANDS,,,,LAX,310-922-1302,2019-02-07 06:42:38.170000000,2019-02-07 06:42:57.527000000,,,,100 World Way,Los Angeles,90045,2019-04-11T00:00:02.000
1852,1288,XpresSpa,,"XpresSpa offers the ultimate relaxation experience such as a facial, massage, manicure, pedicure, waxing and much more.",1,,,,Terminal 5,Departure Level,"SPAS, GIFT SHOPS AND NEWS STANDS",,,,LAX,310-846-0098,2018-02-02 10:46:44.317000000,,,33.941728024712546,-118.40436608602692,500 World Way,Los Angeles,90045,2019-04-11T00:00:02.000
765,514,Superior Airline Services,, ,,,,,Terminal 3,,AIRCRAFT SERVICES,,,,LAX,(310) 410-1132,,,,,,300 World Way,Los Angeles,90045,2019-04-11T00:00:02.000
1940,1376,moshi ,,,1,,,,Terminal 4,,GIFT SHOPS AND NEWS STANDS,,,,LAX,310-410-9123,2018-03-19 15:12:14.963000000,2018-03-19 15:11:40.377000000,,,,,,,2019-04-11T00:00:02.000
1935,1371,Hong Kong Airlines,,,0,,www.hongkongairlines.com,,TBIT,Departure Level,AIR CARRIER,,,,LAX,(855) 393-3880,2017-12-15 14:10:17.290000000,2017-12-15 14:12:11.620000000,,,,,,,2019-04-11T00:00:02.000
1551,1010,Volaris,,,0,,www.volaris.mx,,TBIT,Departure Level,AIR CARRIER,,,,LAX,(855) 865-2747,2018-10-30 07:22:21.287000000,2018-10-30 07:20:31.887000000,,,,380 World Way,Los Angeles,90045,2019-04-11T00:00:02.000
1578,1035,Turkish Airlines,,,0,,www.turkishairlines.com,,TBIT,,AIR CARRIER,,,,LAX,(800) 874-8875,,,,,,380 World Way,Los Angeles,90045,2019-04-11T00:00:02.000
1919,1355,Shake Shack,,Shake Shack grills up 100% all-natural Angus beef and crinkle cut fries.,1,,,,Terminal 3,Departure Level,FOOD AND BEVERAGE FACILITIES,,,,LAX,310-307-7499,2018-02-05 07:46:42.297000000,2017-06-27 15:45:47.153000000,,33.946675560497454,-118.4074050288408,,,,2019-04-11T00:00:02.000
841,556,U.S. Public Health Service,"For public inquiries, call the Centers for Disease Control and Prevention (CDC) Hotline:
(888) 246-2675", ,,,www.cdc.gov/,,Terminal 2,Arrival Level,GOVERNMENT AGENCIES,,,,LAX,(310) 215-2427,,,,,,200 World Way,Los Angeles,90045,2019-04-11T00:00:02.000
1651,1087,Book Soup,,Search for a book or magazine at the Book Soup Bookstore.,1,,,,Terminal 7,Departure Level,GIFT SHOPS AND NEWS STANDS,,,,LAX,(310) 642-0971,2018-02-02 10:50:59.220000000,,,33.942041,-118.399524,700 World Way,Los Angeles,90045,2019-04-11T00:00:02.000
1913,1349,Delta Airlines,,,0,,,,Terminal 2,Departure Level,AIR CARRIER,,,,LAX,(800) 221-1212,2017-05-15 04:06:39.143000000,2017-05-15 04:07:11.123000000,,,,200 World Way,Los Angeles,90045,2019-04-11T00:00:02.000
1619,1056,Lemonade,,"Lemonade offers seasonal Southern California comfort food in a fast-casual modern cafeteria setting. Lemonade provides passengers with an “on the go” dining experience featuring marketplace salads, unique sandwiches, and slow simmered braises. It is reall",1,,,,Terminal 5,Departure Level,FOOD AND BEVERAGE FACILITIES,,,,LAX,866-820-1178,2018-02-02 10:32:21.703000000,,,33.941117,-118.404285,500 World Way,Los Angeles,90045,2019-04-11T00:00:02.000
1626,1062,ICE Currency Exchange Kiosk,,,0,,,,Terminal 5,Departure Level,"BUSINESS SERVICES, CURRENCY EXCHANGE",,,,LAX,(310) 348-1725,2017-08-01 08:59:08.463000000,,,33.941984,-118.404579,500 World Way,Los Angeles,90045,2019-04-11T00:00:02.000
1934,1370,Viva Aerobus,,,0,,www.vivaaerobus.com/en,,Terminal 6,Departure Level,AIR CARRIER,,,,LAX,(888) 935-9848,2017-12-15 13:59:09.650000000,2017-12-15 13:59:09.647000000,,,,600 World Way,Los Angeles,90045,2019-04-11T00:00:02.000
1675,1111,Starbucks,,"Starbucks is an internationally known coffee shop offering drinks, snacks, and to-go items.",0,,,,Terminal 4,Arrival Level,FOOD AND BEVERAGE FACILITIES,,,,LAX,310-646-3472,2018-02-05 07:54:55.900000000,,,33.942284316976774,-118.4072253208368,400 World Way,Los Angeles,90045,2019-04-11T00:00:02.000
449,292,ICE Currency Exchange Kiosk,Located in LAX  airport., ,,,,,Terminal 4,Departure Level,"BUSINESS SERVICES, INSURANCE, CURRENCY EXCHANGE",,,,LAX,310-646-2929,2017-08-09 15:58:03.827000000,,,33.941473,-118.406727,400 World Way,Los Angeles,90045,2019-04-11T00:00:02.000
1958,1392,ICE Currecy Exchange Kiosk - South Concourse,,,1,,,,TBIT,,BUSINESS SERVICES,,,,LAX,310-338-9736,2018-10-11 12:52:45.950000000,2018-10-11 12:52:45.940000000,,,,,,,2019-04-11T00:00:02.000
1699,1135,Victoria's Secret,,"International travelers and frequent flyers love a little luxury – and that’s just what they find at Victoria’s Secret. Indulgent beauty products, fragrances, branded accessories – and of course those sophisticated little underthings – are ready for takeo",1,,,,TBIT,Great Hall,GIFT SHOPS AND NEWS STANDS,,,,LAX,310-259-3368,2018-02-02 07:17:34.910000000,,,33.94339665,-118.4105507,380 World Way,Los Angeles,90045,2019-04-11T00:00:02.000
526,346,LAX Two Corp.,Management corp. at LAX., ,,,,,Terminal 2,,MISCELLANEOUS,,,,LAX,(310) 417-0392,,,,,,,,,2019-04-11T00:00:02.000
1683,1119,Umami Burger,,"Eat at Umami Burger if you want a handcrafted, grass fed burger, and other tasty menu items.",1,,,,TBIT,Great Hall - Food Court,FOOD AND BEVERAGE FACILITIES,,,,LAX,310-307-7538,2018-02-02 11:00:17.853000000,,,33.94387796,-118.41006045,380 World Way,Los Angeles,90045,2019-04-11T00:00:02.000
1141,685,Swiss International Air Lines Ltd.,,,,,www.swiss.com,,TBIT,,AIR CARRIER,,,,LAX,(877) 359-7947,,,,,,,,,2019-04-11T00:00:02.000
1732,1168,Hudson,,"The next generation travel essentials store. We are The Traveler’s Best Friend. Hudson’s brightly lit sections – Media, Marketplace, Essentials and Destination – meet customer demand for all the traveler’s essentials: reading materials, snacks, beverages,",1,,,,TBIT,Great Hall,GIFT SHOPS AND NEWS STANDS,,,,LAX,424-750-9832,2018-02-02 08:06:49.307000000,,,33.942626,-118.410609,380 World Way,Los Angeles,90045,2019-04-11T00:00:02.000
1938,1374,Panda Express ,,"Panda express is well known for its teriyaki chicken, egg rolls, fried rice and other Asian favorites.",1,,,,Terminal 3,,FOOD AND BEVERAGE FACILITIES,,,,LAX,866-820-1178,2018-02-05 07:45:17.640000000,2017-12-28 09:46:09.577000000,,,,,,,2019-04-11T00:00:02.000
1191,721,TSA Lost & Found,"To retrieve items left behind in any of the passenger security checkpoints, contact the above number from the hours of 0600-2200.  Office is open 7 days a week.     ",,,,www.tsa.dot.gov,,Terminal 6,,GOVERNMENT AGENCIES,,,,LAX,(310) 242-9073,,,,,,,,,2019-04-11T00:00:02.000
118,70,American Eagle,, ,0,,www.aa.com,AA,Terminal 4,T-4,AIR CARRIER,,,,LAX,(310) 646-6500,2017-07-03 08:07:44.270000000,,,,,400 World Way,Los Angeles,90045,2019-04-11T00:00:02.000
1606,1050,DFS Duty Free,,DFS Duty Free offers a variety of products for travelers. Domestic passengers are invited to purchase everything but liquor and tobacco.,1,,,,Terminal 2,Departure Level,DUTY FREE SHOPS,,,,LAX,(310) 348-2642,2018-02-05 06:50:18.743000000,,,33.945992314935175,-118.40391363152048,200 World Way,Los Angeles,90045,2019-04-11T00:00:02.000
1730,1166,Burberry Boutique - Duty Free,,Burberry has an international reputation for fine quality men's and women's apparel as well as handbags.,1,,,,TBIT,Great Hall,DUTY FREE SHOPS,,,,LAX,(310) 348-2785,2018-02-02 11:42:19.733000000,,,33.94326522,-118.41002034,380 World Way,Los Angeles,90045,2019-04-11T00:00:02.000
1726,1162,Coach,,"Quality handbags, small leather goods and accessories in all the latest fashion colors are showcased perfectly in this dramatic corner store. Founded in a New York City loft in 1941, Coach has emerged as a top designer – the perfect luxury specialty retai",1,,,,TBIT,Great Hall,GIFT SHOPS AND NEWS STANDS,,,,LAX,(424) 750-9171,2018-02-02 07:21:25.830000000,,,33.94316935,-118.41039355,380 World Way,Los Angeles,90045,2019-04-11T00:00:02.000
1140,656,Lufthansa,Located in Tom Bradley International Terminal (TBIT)., ,,,www.lufthansa.com,,TBIT,,AIR CARRIER,,,,LAX,(877) 234-3449,,,,,, 380 World Way,Los Angeles, 90045,2019-04-11T00:00:02.000
1850,1286,Treat Me Sweet,,Shop for a variety of candy at Treat Me Sweet.,1,,,,Terminal 1,Departure Level,GIFT SHOPS AND NEWS STANDS,,,,LAX,310-641-1546,2018-02-02 10:45:52.790000000,,,33.94670050288552,-118.401312364418,100 World Way,Los Angeles,90045,2019-04-11T00:00:02.000
79,53,Alaska Airlines,"At LAX, Mexico International Arrivals are located in the Tom Bradley International Terminal (TBIT).", ,1,,www.alaskaair.com/Destinations/CityGuides.aspx?city=lax&CID=QX_OLA_BT_LAX_APT,,Terminal 6,T-6,AIR CARRIER,,,,LAX,(310) 846-1559,,,,,,600 World Way,Los Angeles,90045,2019-04-11T00:00:02.000
1055,169,Copa Airlines ,Copa flights check-in at Terminal 3. Guests will walk from Terminal 3 to the Tom Bradley International Terminal (Terminal B) for flight departure. Copa arriving passengers may be met at the Tom Bradley International Terminal (Terminal B), Check-in Terminal 3. Passengers will walk to the Tom Bradley International Terminal (Terminal B) for flight departure.,0,,www.copaair.com,CM,Terminal 3,T-3,AIR CARRIER,,,,LAX,(800) 359-2672,2017-07-03 08:19:36.887000000,2017-04-07 07:13:49.110000000,2017-04-07 07:07:31.560000000,,,300 Word Way,Los Angeles,90045,2019-04-11T00:00:02.000
181,120,British Airways,Located in Tom Bradley International Terminal (TBIT)., ,,,www.british-airways.com,BA,TBIT,,AIR CARRIER,,,,LAX,(310) 846-2015,,,,,,380 World Way,Los Angeles,90045,2019-04-11T00:00:02.000
318,210,El Al Israel Airlines,Located in Tom Bradley International Terminal (TBIT)., ,,,www.elal.co.il,LY,TBIT,,AIR CARRIER,,,,LAX,(310) 646-3765,,,,,,380 World Way #3328,Los Angeles,90045,2019-04-11T00:00:02.000
1736,1172,Norwegian Air Shuttle,,,0,,www.norwegian.com/us/,,TBIT,Departure Level,AIR CARRIER,,,,LAX,(800) 357-4159,,2017-02-10 09:52:34.797000000,,,,380 World Way,Los Angeles,90045,2019-04-11T00:00:02.000
1237,759,West Jet,,,0,,www.westjet.com,,Terminal 2,,AIR CARRIER,,,,LAX,(888) 937-8538,,,,,,200 World Way,Los Angeles,90045,2019-04-11T00:00:02.000
1724,1160,Michael Kors,,"The top rung on the fashion ladder these days belongs to superstar American designer Michael Kors. His fashion-forward handbags and accessories virtually call to passersby from this bright and appealing store. Sexy, curved glass enclosures and a bold marq",1,,,,TBIT,Great Hall,GIFT SHOPS AND NEWS STANDS,,,,LAX,424-800-2274,2018-02-02 07:23:28.373000000,,,33.94346443,-118.41043628,380 World Way,Los Angeles,90045,2019-04-11T00:00:02.000
1725,1161,Emporio Armani,,"Emporio Armani stands for high quality, featuring men's apparel, women's apparel, jeans, sunglasses and more.",1,,,,TBIT,Great Hall,GIFT SHOPS AND NEWS STANDS,,,,LAX,424-750-9026,2018-02-02 11:38:40.447000000,,,33.94346146,-118.41036071,380 World Way,Los Angeles,90045,2019-04-11T00:00:02.000
1945,1381,Ashland Hill,,,1,,,,Terminal 7,,FOOD AND BEVERAGE FACILITIES,,,,LAX,866-820-1178,2018-06-07 07:34:36.447000000,2018-06-07 07:23:52.747000000,,,,,,,2019-04-11T00:00:02.000
1886,1322,BLU2o,,Blu2O Bar offers cocktails along with a variety of bar bites and small plates.,1,,,,Terminal 6,Departure Level,FOOD AND BEVERAGE FACILITIES,,,,LAX,310-736-7045,2018-02-06 09:27:17.147000000,,,33.94049794,-118.40190228,,,,2019-04-11T00:00:02.000
1652,1088,Hugo Boss,,"Synonymous with style, Hugo Boss is well known for classic high end designer men's apparel.
",1,,,,Terminal 7,Departure Level,GIFT SHOPS AND NEWS STANDS,,,,LAX,(310) 568-8747,2018-02-05 14:08:19.830000000,,,33.941794,-118.399752,700 World Way,Los Angeles,90045,2019-04-11T00:00:02.000
1792,1228,Travel + Leisure,,"Travel + Leisure is the world’s leading travel magazine, a celebration of travel. The T+L store focuses on all aspects of travel, particularly on the fine luggage and accessory products that make the travel experience easier and more fashionable.  T-Tech,",0,,,,TBIT,Ticketing Level,GIFT SHOPS AND NEWS STANDS,,,,LAX,(310) 642-0512,2018-02-02 07:27:35.950000000,,,33.94372525,-118.40864797,380 World Way,Los Angeles,90045,2019-04-11T00:00:02.000
1609,1050,DFS Duty Free,,DFS Duty Free offers a variety of products for travelers. Domestic passengers are invited to purchase everything but liquor and tobacco.,1,,,,Terminal 5,Departure Level,DUTY FREE SHOPS,,,,LAX,(310) 348-2632,2018-02-05 10:00:54.603000000,,,33.940906,-118.404531,500 World Way,Los Angeles,90045,2019-04-11T00:00:02.000
810,541,Travelers Info-VIP,, ,,,www.lawa.org/vip,,Terminal 7,Arrival Level,TRAVELERS ASSISTANCE,,,,LAX,(310) 646-2277,,,,,,700 World Way,Los Angeles,90045,2019-04-11T00:00:02.000
1914,1350,Peet's Coffee,,"Peet's is well known for their fresh roasted, dark roast.
",1,,,,Terminal 6,Departure Level,FOOD AND BEVERAGE FACILITIES,,,,LAX,424-227-9897,2018-02-05 13:36:51.720000000,2017-05-15 15:35:21.600000000,,33.94106146712913,-118.40176471079434,600 World Way,Los Angeles,90045,2019-04-11T00:00:02.000
1939,1375,Ashland Hill (and Bar),,Ashland Hill’s food has been called “nuanced and delicious” with menus that draw from its California roots. Discover your inner foodie at this classic LA-based restaurant. ……. In search of the perfect drink? Look no further. Ashland Hill Bar’s vibrant ing,1,,,,Terminal 3,,FOOD AND BEVERAGE FACILITIES,,,,LAX,866-820-1178,2018-02-08 15:37:41.893000000,2017-12-28 09:49:46.480000000,,,,,,,2019-04-11T00:00:02.000
